[
  {
    "link": "\/appartement-te-huur\/sittard\/8f68c531\/markt",
    "site": "pararius",
    "street": "Markt",
    "houseNumber": "28",
    "postalCode": "6131EL",
    "city": "Sittard"
  },
  {
    "link": "\/huis-te-huur\/delfzijl\/f73ced36\/oude-schans",
    "site": "pararius",
    "street": "Oude Schans",
    "houseNumber": "19",
    "postalCode": "9934CM",
    "city": "Delfzijl"
  },
  {
    "link": "\/appartement-te-huur\/delfzijl\/3aa2a214\/koningsplaat",
    "site": "pararius",
    "street": "Koningsplaat",
    "houseNumber": "19",
    "postalCode": "9931CG",
    "city": "Delfzijl"
  },
  {
    "link": "\/huis-te-huur\/delfzijl\/0547c255\/finsestraat",
    "site": "pararius",
    "street": "Finsestraat",
    "houseNumber": "176",
    "postalCode": "9933PN",
    "city": "Delfzijl"
  },
  {
    "link": "\/kamer-te-huur\/de-wilp\/b3bb2d46\/schoolstraat",
    "site": "pararius",
    "street": "Schoolstraat",
    "houseNumber": "32",
    "postalCode": "9367PZ",
    "city": "De Wilp"
  },
  {
    "link": "\/studio-te-huur\/geleen\/b9d43cad\/annastraat",
    "site": "pararius",
    "street": "Annastraat",
    "houseNumber": "37",
    "postalCode": "6161GW",
    "city": "Geleen"
  },
  {
    "link": "\/kamer-te-huur\/maastricht\/2b18f247\/meerssenerweg",
    "site": "pararius",
    "street": "Meerssenerweg",
    "houseNumber": "366",
    "postalCode": "6224AL",
    "city": "Maastricht"
  },
  {
    "link": "\/kamer-te-huur\/groningen\/a3a206d8\/steentilstraat",
    "site": "pararius",
    "street": "Steentilstraat",
    "houseNumber": "35",
    "postalCode": "9711GK",
    "city": "Groningen"
  },
  {
    "link": "\/huis-te-huur\/delfzijl\/413bc61f\/schuitenzand",
    "site": "pararius",
    "street": "Schuitenzand",
    "houseNumber": "24",
    "postalCode": "9931AD",
    "city": "Delfzijl"
  },
  {
    "link": "\/appartement-te-huur\/sittard\/cb1de445\/stationsdwarsstraat",
    "site": "pararius",
    "street": "Stationsdwarsstraat",
    "houseNumber": "12",
    "postalCode": "6131BA",
    "city": "Sittard"
  },
  {
    "link": "\/kamer-te-huur\/leeuwarden\/157799c4\/wassenberghstraat",
    "site": "pararius",
    "street": "Wassenberghstraat",
    "houseNumber": "10",
    "postalCode": "8932GM",
    "city": "Leeuwarden"
  },
  {
    "link": "\/kamer-te-huur\/leeuwarden\/f0a9b567\/uiterdijksterweg",
    "site": "pararius",
    "street": "Uiterdijksterweg",
    "houseNumber": "55",
    "postalCode": "8931BL",
    "city": "Leeuwarden"
  },
  {
    "link": "\/huis-te-huur\/uithuizen\/be968e24\/ommelandenweg",
    "site": "pararius",
    "street": "Ommelandenweg",
    "houseNumber": "14",
    "postalCode": "9981GK",
    "city": "Uithuizen"
  },
  {
    "link": "\/appartement-te-huur\/kerkrade\/b952f7bd\/kloosterraderstraat",
    "site": "pararius",
    "street": "Kloosterraderstraat",
    "houseNumber": "27",
    "postalCode": "6461CA",
    "city": "Kerkrade"
  },
  {
    "link": "\/kamer-te-huur\/hilversum\/c69c8753\/bodemanstraat",
    "site": "pararius",
    "street": "Bodemanstraat",
    "houseNumber": "48",
    "postalCode": "1216AL",
    "city": "Hilversum"
  },
  {
    "link": "\/kamer-te-huur\/pijnacker\/320a885c\/stationsstraat",
    "site": "pararius",
    "street": "Stationsstraat",
    "houseNumber": "16",
    "postalCode": "2641GL",
    "city": "Pijnacker"
  },
  {
    "link": "\/kamer-te-huur\/maastricht\/53a2f39c\/statensingel",
    "site": "pararius",
    "street": "Statensingel",
    "houseNumber": "16",
    "postalCode": "6217KD",
    "city": "Maastricht"
  },
  {
    "link": "\/huis-te-huur\/uithuizen\/4a06aab7\/tjalk",
    "site": "pararius",
    "street": "Tjalk",
    "houseNumber": "5",
    "postalCode": "9981EH",
    "city": "Uithuizen"
  },
  {
    "link": "\/huis-te-huur\/delfzijl\/4248bacd\/bosplaat",
    "site": "pararius",
    "street": "Bosplaat",
    "houseNumber": "43",
    "postalCode": "9931CX",
    "city": "Delfzijl"
  },
  {
    "link": "\/huis-te-huur\/delfzijl\/26eccbb1\/horsbornplaat",
    "site": "pararius",
    "street": "Horsbornplaat",
    "houseNumber": "64",
    "postalCode": "9931CN",
    "city": "Delfzijl"
  },
  {
    "link": "\/appartement-te-huur\/kerkrade\/00909919\/burg-savelberglaan",
    "site": "pararius",
    "street": "Burg.Savelberglaan",
    "houseNumber": "29",
    "postalCode": "6461GL",
    "city": "Kerkrade"
  },
  {
    "link": "\/kamer-te-huur\/arnhem\/adcf2f59\/amsterdamseweg",
    "site": "pararius",
    "street": "Amsterdamseweg",
    "houseNumber": "204",
    "postalCode": "6814GL",
    "city": "Arnhem"
  },
  {
    "link": "\/kamer-te-huur\/enschede\/1613b82a\/espoortstraat",
    "site": "pararius",
    "street": "Espoortstraat",
    "houseNumber": "169",
    "postalCode": "7511CJ",
    "city": "Enschede"
  },
  {
    "link": "\/appartement-te-huur\/kerkrade\/a2a3e8ab\/kloosterraderstraat",
    "site": "pararius",
    "street": "Kloosterraderstraat",
    "houseNumber": "27",
    "postalCode": "6461CA",
    "city": "Kerkrade"
  },
  {
    "link": "\/studio-te-huur\/spaubeek\/dc86fe45\/hobbelrade",
    "site": "pararius",
    "street": "Hobbelrade",
    "houseNumber": "106",
    "postalCode": "6176CJ",
    "city": "Spaubeek"
  },
  {
    "link": "\/appartement-te-huur\/ternaard\/875f6b68\/nesserwei",
    "site": "pararius",
    "street": "Nesserwei",
    "houseNumber": "2",
    "postalCode": "9145CG",
    "city": "Ternaard"
  },
  {
    "link": "\/appartement-te-huur\/deventer\/57c9f99e\/verlengde-kazernestraat",
    "site": "pararius",
    "street": "Verlengde Kazernestraat",
    "houseNumber": "17",
    "postalCode": "7417ZA",
    "city": "Deventer"
  },
  {
    "link": "\/appartement-te-huur\/kerkrade\/d3229e0a\/kloosterraderstraat",
    "site": "pararius",
    "street": "Kloosterraderstraat",
    "houseNumber": "27",
    "postalCode": "6461CA",
    "city": "Kerkrade"
  },
  {
    "link": "\/kamer-te-huur\/arnhem\/0deb3003\/korenmarkt",
    "site": "pararius",
    "street": "Korenmarkt",
    "houseNumber": "1",
    "postalCode": "6811GV",
    "city": "Arnhem"
  },
  {
    "link": "\/kamer-te-huur\/enschede\/b6632064\/getfertsingel",
    "site": "pararius",
    "street": "Getfertsingel",
    "houseNumber": "196",
    "postalCode": "7513GG",
    "city": "Enschede"
  },
  {
    "link": "\/kamer-te-huur\/arnhem\/682eb124\/hertogstraat",
    "site": "pararius",
    "street": "Hertogstraat",
    "houseNumber": "21",
    "postalCode": "6828ES",
    "city": "Arnhem"
  },
  {
    "link": "\/appartement-te-huur\/vaals\/6a1d8e93\/maastrichterlaan",
    "site": "pararius",
    "street": "Maastrichterlaan",
    "houseNumber": "57",
    "postalCode": "6291EL",
    "city": "Vaals"
  },
  {
    "link": "\/appartement-te-huur\/kerkrade\/091e0cca\/st-pieterstraat",
    "site": "pararius",
    "street": "St.Pieterstraat",
    "houseNumber": "5",
    "postalCode": "6463CP",
    "city": "Kerkrade"
  },
  {
    "link": "\/appartement-te-huur\/kerkrade\/28835672\/franciscanerstraat",
    "site": "pararius",
    "street": "Franciscanerstraat",
    "houseNumber": "49",
    "postalCode": "6462CL",
    "city": "Kerkrade"
  },
  {
    "link": "\/kamer-te-huur\/rotterdam\/040f8ca9\/russischestraat",
    "site": "pararius",
    "street": "Russischestraat",
    "houseNumber": "68A",
    "postalCode": "3028BH",
    "city": "Rotterdam"
  },
  {
    "link": "\/kamer-te-huur\/groningen\/89b33a0b\/jan-goeverneurstraat",
    "site": "pararius",
    "street": "Jan Goeverneurstraat",
    "houseNumber": "35",
    "postalCode": "9724LK",
    "city": "Groningen"
  },
  {
    "link": "\/kamer-te-huur\/hilversum\/4d9a8d1c\/vaartweg",
    "site": "pararius",
    "street": "Vaartweg",
    "houseNumber": "139",
    "postalCode": "1217SN",
    "city": "Hilversum"
  },
  {
    "link": "\/appartement-te-huur\/hengelo\/4e3aed42\/markt",
    "site": "pararius",
    "street": "Markt",
    "houseNumber": "301",
    "postalCode": "7551CH",
    "city": "Hengelo"
  },
  {
    "link": "\/appartement-te-huur\/deventer\/2a04646e\/verlengde-kazernestraat",
    "site": "pararius",
    "street": "Verlengde Kazernestraat",
    "houseNumber": "65",
    "postalCode": "7417ZA",
    "city": "Deventer"
  },
  {
    "link": "\/appartement-te-huur\/kerkrade\/8836d6d3\/st-pieterstraat",
    "site": "pararius",
    "street": "St.Pieterstraat",
    "houseNumber": "5",
    "postalCode": "6463CP",
    "city": "Kerkrade"
  },
  {
    "link": "\/studio-te-huur\/hilversum\/b7f20ad6\/langestraat",
    "site": "pararius",
    "street": "Langestraat",
    "houseNumber": "59B",
    "postalCode": "1211GW",
    "city": "Hilversum"
  },
  {
    "link": "\/appartement-te-huur\/apeldoorn\/26708f7f\/hoofdstraat",
    "site": "pararius",
    "street": "Hoofdstraat",
    "houseNumber": "13",
    "postalCode": "7311JS",
    "city": "Apeldoorn"
  },
  {
    "link": "\/appartement-te-huur\/doetinchem\/e5017256\/burgemeester-van-nispenstraat",
    "site": "pararius",
    "street": "Burgemeester van Nispenstraat",
    "houseNumber": "14",
    "postalCode": "7001BS",
    "city": "Doetinchem"
  },
  {
    "link": "\/appartement-te-huur\/vaals\/6921ac73\/koperstraat",
    "site": "pararius",
    "street": "Koperstraat",
    "houseNumber": "6",
    "postalCode": "6291AJ",
    "city": "Vaals"
  },
  {
    "link": "\/appartement-te-huur\/almelo\/ccaf9323\/wierdensestraat",
    "site": "pararius",
    "street": "Wierdensestraat",
    "houseNumber": "76",
    "postalCode": "7604BK",
    "city": "Almelo"
  },
  {
    "link": "\/appartement-te-huur\/enkhuizen\/4d8f21d4\/gerard-brandtweg",
    "site": "pararius",
    "street": "Gerard Brandtweg",
    "houseNumber": "43",
    "postalCode": "1602LW",
    "city": "Enkhuizen"
  },
  {
    "link": "\/appartement-te-huur\/heerlen\/8c0343f4\/muzenlaan",
    "site": "pararius",
    "street": "Muzenlaan",
    "houseNumber": "248",
    "postalCode": "6411AL",
    "city": "Heerlen"
  },
  {
    "link": "\/appartement-te-huur\/wieringerwerf\/52efc869\/texelstroom",
    "site": "pararius",
    "street": "Texelstroom",
    "houseNumber": "32",
    "postalCode": "1771HR",
    "city": "Wieringerwerf"
  },
  {
    "link": "\/appartement-te-huur\/steenbergen-nb\/64a6f83c\/waterlinie",
    "site": "pararius",
    "street": "Waterlinie",
    "houseNumber": "86",
    "postalCode": "4652GB",
    "city": "Steenbergen"
  },
  {
    "link": "\/kamer-te-huur\/arnhem\/fbb714c5\/nieuwe-plein",
    "site": "pararius",
    "street": "Nieuwe Plein",
    "houseNumber": "24",
    "postalCode": "6811KR",
    "city": "Arnhem"
  },
  {
    "link": "\/appartement-te-huur\/franeker\/653da8cb\/ockingahiem",
    "site": "pararius",
    "street": "Ockingahiem",
    "houseNumber": "23",
    "postalCode": "8801KR",
    "city": "Franeker"
  },
  {
    "link": "\/appartement-te-huur\/heerlen\/8a394807\/de-heugden",
    "site": "pararius",
    "street": "De Heugden",
    "houseNumber": "24",
    "postalCode": "6411DL",
    "city": "Heerlen"
  },
  {
    "link": "\/appartement-te-huur\/alkmaar\/380ffaf7\/schinkelwaard",
    "site": "pararius",
    "street": "Schinkelwaard",
    "houseNumber": "24",
    "postalCode": "1824DS",
    "city": "Alkmaar"
  },
  {
    "link": "\/appartement-te-huur\/den-haag\/e0bc55df\/waldorpstraat",
    "site": "pararius",
    "street": "Waldorpstraat",
    "houseNumber": "1196",
    "postalCode": "2521CX",
    "city": "Den Haag"
  },
  {
    "link": "\/appartement-te-huur\/den-haag\/322d5299\/waldorpstraat",
    "site": "pararius",
    "street": "Waldorpstraat",
    "houseNumber": "1152",
    "postalCode": "2521CX",
    "city": "Den Haag"
  },
  {
    "link": "\/appartement-te-huur\/den-haag\/f04fb6b1\/waldorpstraat",
    "site": "pararius",
    "street": "Waldorpstraat",
    "houseNumber": "1244",
    "postalCode": "2521CZ",
    "city": "Den Haag"
  },
  {
    "link": "\/kamer-te-huur\/arnhem\/7a8913f0\/sint-marten",
    "site": "pararius",
    "street": "Sint Marten",
    "houseNumber": "78",
    "postalCode": "6821BX",
    "city": "Arnhem"
  },
  {
    "link": "\/studio-te-huur\/bennekom\/c7c87b0c\/driestweg",
    "site": "pararius",
    "street": "Driestweg",
    "houseNumber": "5",
    "postalCode": "6721NG",
    "city": "Bennekom"
  },
  {
    "link": "\/appartement-te-huur\/heerlen\/84d24a93\/unescostraat",
    "site": "pararius",
    "street": "Unescostraat",
    "houseNumber": "56",
    "postalCode": "6414NX",
    "city": "Heerlen"
  },
  {
    "link": "\/studio-te-huur\/maastricht\/face92d9\/tischbeinstraat",
    "site": "pararius",
    "street": "Tischbeinstraat",
    "houseNumber": "6A",
    "postalCode": "6221XG",
    "city": "Maastricht"
  },
  {
    "link": "\/appartement-te-huur\/baarn\/ec978c72\/nieuwstraat",
    "site": "pararius",
    "street": "Nieuwstraat",
    "houseNumber": "38",
    "postalCode": "3743BL",
    "city": "Baarn"
  },
  {
    "link": "\/appartement-te-huur\/heerlen\/6f610b92\/kempkensweg",
    "site": "pararius",
    "street": "Kempkensweg",
    "houseNumber": "4",
    "postalCode": "6412AW",
    "city": "Heerlen"
  },
  {
    "link": "\/appartement-te-huur\/den-haag\/c7f560ea\/waldorpstraat",
    "site": "pararius",
    "street": "Waldorpstraat",
    "houseNumber": "503",
    "postalCode": "2521CJ",
    "city": "Den Haag"
  },
  {
    "link": "\/appartement-te-huur\/landgraaf\/97617b59\/romeinenplein",
    "site": "pararius",
    "street": "Romeinenplein",
    "houseNumber": "18",
    "postalCode": "6372EL",
    "city": "Landgraaf"
  },
  {
    "link": "\/appartement-te-huur\/vaals\/5cd943e5\/koperstraat",
    "site": "pararius",
    "street": "Koperstraat",
    "houseNumber": "6",
    "postalCode": "6291AJ",
    "city": "Vaals"
  },
  {
    "link": "\/appartement-te-huur\/geleen\/d0b65074\/burg-lemmensstraat",
    "site": "pararius",
    "street": "Burg. Lemmensstraat",
    "houseNumber": "222",
    "postalCode": "6163JT",
    "city": "Geleen"
  },
  {
    "link": "\/kamer-te-huur\/arnhem\/56f87a54\/driekoningenstraat",
    "site": "pararius",
    "street": "Driekoningenstraat",
    "houseNumber": "23",
    "postalCode": "6828EL",
    "city": "Arnhem"
  },
  {
    "link": "\/kamer-te-huur\/rijnsburg\/125454af\/rijnsburgerweg",
    "site": "pararius",
    "street": "Rijnsburgerweg",
    "houseNumber": "100",
    "postalCode": "2231AG",
    "city": "Rijnsburg"
  },
  {
    "link": "\/appartement-te-huur\/landgraaf\/9d33baea\/romeinenplein",
    "site": "pararius",
    "street": "Romeinenplein",
    "houseNumber": "16",
    "postalCode": "6372EL",
    "city": "Landgraaf"
  },
  {
    "link": "\/appartement-te-huur\/echt\/0d807ba0\/narcissenstraat",
    "site": "pararius",
    "street": "Narcissenstraat",
    "houseNumber": "106",
    "postalCode": "6101LL",
    "city": "Echt"
  },
  {
    "link": "\/appartement-te-huur\/hoensbroek\/a2e94aa0\/akerstraat-noord",
    "site": "pararius",
    "street": "Akerstraat-Noord",
    "houseNumber": "300",
    "postalCode": "6431HW",
    "city": "Hoensbroek"
  },
  {
    "link": "\/appartement-te-huur\/arnhem\/1f3dff60\/willem-barendszstraat",
    "site": "pararius",
    "street": "Willem Barendszstraat",
    "houseNumber": "40",
    "postalCode": "6828ZK",
    "city": "Arnhem"
  },
  {
    "link": "\/appartement-te-huur\/enkhuizen\/bacbb890\/reigerweg",
    "site": "pararius",
    "street": "Reigerweg",
    "houseNumber": "28",
    "postalCode": "1602PB",
    "city": "Enkhuizen"
  },
  {
    "link": "\/appartement-te-huur\/heerlen\/325c883e\/mariabad",
    "site": "pararius",
    "street": "Mariabad",
    "houseNumber": "61",
    "postalCode": "6411MC",
    "city": "Heerlen"
  },
  {
    "link": "\/appartement-te-huur\/deventer\/0e843765\/verlengde-kazernestraat",
    "site": "pararius",
    "street": "Verlengde Kazernestraat",
    "houseNumber": "37",
    "postalCode": "7417ZA",
    "city": "Deventer"
  },
  {
    "link": "\/appartement-te-huur\/heerlen\/81b81eee\/grasbroekerweg",
    "site": "pararius",
    "street": "Grasbroekerweg",
    "houseNumber": "3",
    "postalCode": "6412BA",
    "city": "Heerlen"
  },
  {
    "link": "\/appartement-te-huur\/sittard\/907296a7\/putstraat",
    "site": "pararius",
    "street": "Putstraat",
    "houseNumber": "25",
    "postalCode": "6131HH",
    "city": "Sittard"
  },
  {
    "link": "\/kamer-te-huur\/arnhem\/b473ae83\/eusebiusbuitensingel",
    "site": "pararius",
    "street": "Eusebiusbuitensingel",
    "houseNumber": "37",
    "postalCode": "6828HX",
    "city": "Arnhem"
  },
  {
    "link": "\/appartement-te-huur\/veendam\/55cad523\/steenstraat",
    "site": "pararius",
    "street": "Steenstraat",
    "houseNumber": "49",
    "postalCode": "9646BB",
    "city": "Veendam"
  },
  {
    "link": "\/appartement-te-huur\/deventer\/acaf854c\/verlengde-kazernestraat",
    "site": "pararius",
    "street": "Verlengde Kazernestraat",
    "houseNumber": "145",
    "postalCode": "7417ZA",
    "city": "Deventer"
  },
  {
    "link": "\/appartement-te-huur\/hengelo\/d194b15c\/markt",
    "site": "pararius",
    "street": "Markt",
    "houseNumber": "209",
    "postalCode": "7551CH",
    "city": "Hengelo"
  },
  {
    "link": "\/appartement-te-huur\/utrecht\/1de11ce0\/justus-van-effenstraat",
    "site": "pararius",
    "street": "Justus van Effenstraat",
    "houseNumber": "46",
    "postalCode": "3511HN",
    "city": "Utrecht"
  },
  {
    "link": "\/appartement-te-huur\/hengelo\/b6e912c3\/markt",
    "site": "pararius",
    "street": "Markt",
    "houseNumber": "216",
    "postalCode": "7551CH",
    "city": "Hengelo"
  },
  {
    "link": "\/appartement-te-huur\/hengelo\/e1730610\/markt",
    "site": "pararius",
    "street": "Markt",
    "houseNumber": "103",
    "postalCode": "7551CH",
    "city": "Hengelo"
  },
  {
    "link": "\/appartement-te-huur\/steenbergen-nb\/ca3c274c\/waterlinie",
    "site": "pararius",
    "street": "Waterlinie",
    "houseNumber": "84",
    "postalCode": "4652GB",
    "city": "Steenbergen"
  },
  {
    "link": "\/appartement-te-huur\/hengelo\/74795081\/mendelssohnstraat",
    "site": "pararius",
    "street": "Mendelssohnstraat",
    "houseNumber": "31",
    "postalCode": "7557BJ",
    "city": "Hengelo"
  },
  {
    "link": "\/appartement-te-huur\/epe\/9eaa2fe1\/albert-schweitzerlaan",
    "site": "pararius",
    "street": "Albert Schweitzerlaan",
    "houseNumber": "161",
    "postalCode": "8162DR",
    "city": "Epe"
  },
  {
    "link": "\/appartement-te-huur\/veenendaal\/ff9c1591\/oudeveen",
    "site": "pararius",
    "street": "Oudeveen",
    "houseNumber": "44",
    "postalCode": "3905VT",
    "city": "Veenendaal"
  },
  {
    "link": "\/appartement-te-huur\/heerlen\/a6c2dbf6\/silhof",
    "site": "pararius",
    "street": "Silhof",
    "houseNumber": "35",
    "postalCode": "6418JV",
    "city": "Heerlen"
  },
  {
    "link": "\/appartement-te-huur\/hoogezand\/a734535f\/hoofdstraat",
    "site": "pararius",
    "street": "Hoofdstraat",
    "houseNumber": "66",
    "postalCode": "9601EK",
    "city": "Hoogezand"
  },
  {
    "link": "\/appartement-te-huur\/leeuwarden\/8df578ae\/zuidvliet",
    "site": "pararius",
    "street": "Zuidvliet",
    "houseNumber": "414",
    "postalCode": "8921ET",
    "city": "Leeuwarden"
  },
  {
    "link": "\/appartement-te-huur\/hengelo\/0a7ab48a\/markt",
    "site": "pararius",
    "street": "Markt",
    "houseNumber": "203",
    "postalCode": "7551CH",
    "city": "Hengelo"
  },
  {
    "link": "\/studio-te-huur\/vlaardingen\/6031584f\/olivier-van-noortlaan",
    "site": "pararius",
    "street": "Olivier van Noortlaan",
    "houseNumber": "120",
    "postalCode": "3133AT",
    "city": "Vlaardingen"
  },
  {
    "link": "\/appartement-te-huur\/heerlen\/ebed0a41\/jongmansweg",
    "site": "pararius",
    "street": "Jongmansweg",
    "houseNumber": "32",
    "postalCode": "6413CS",
    "city": "Heerlen"
  },
  {
    "link": "\/appartement-te-huur\/rotterdam\/a6580c74\/kootsekade",
    "site": "pararius",
    "street": "Kootsekade",
    "houseNumber": "23",
    "postalCode": "3051PC",
    "city": "Rotterdam"
  },
  {
    "link": "\/studio-te-huur\/rotterdam\/fce8814a\/jacob-catsstraat",
    "site": "pararius",
    "street": "Jacob Catsstraat",
    "houseNumber": "96B",
    "postalCode": "3035PS",
    "city": "Rotterdam"
  },
  {
    "link": "\/appartement-te-huur\/hoensbroek\/4593cbf3\/kouvenderstraat",
    "site": "pararius",
    "street": "Kouvenderstraat",
    "houseNumber": "36",
    "postalCode": "6431HG",
    "city": "Hoensbroek"
  },
  {
    "link": "\/appartement-te-huur\/brunssum\/af06cd38\/kerkstraat",
    "site": "pararius",
    "street": "Kerkstraat",
    "houseNumber": "140",
    "postalCode": "6441BJ",
    "city": "Brunssum"
  },
  {
    "link": "\/appartement-te-huur\/roosteren\/6b2a8e5b\/hoekstraat",
    "site": "pararius",
    "street": "Hoekstraat",
    "houseNumber": "45",
    "postalCode": "6116AW",
    "city": "Roosteren"
  },
  {
    "link": "\/appartement-te-huur\/heerlen\/cbc75a98\/willemstraat",
    "site": "pararius",
    "street": "Willemstraat",
    "houseNumber": "32",
    "postalCode": "6412AS",
    "city": "Heerlen"
  },
  {
    "link": "\/appartement-te-huur\/hengelo\/5f1c9e78\/castorweg",
    "site": "pararius",
    "street": "Castorweg",
    "houseNumber": "354",
    "postalCode": "7557KV",
    "city": "Hengelo"
  },
  {
    "link": "\/appartement-te-huur\/heerenveen\/4621b1ca\/trekker",
    "site": "pararius",
    "street": "Trekker",
    "houseNumber": "25",
    "postalCode": "8447BT",
    "city": "Heerenveen"
  },
  {
    "link": "\/appartement-te-huur\/sittard\/b496fd30\/paardestraat",
    "site": "pararius",
    "street": "Paardestraat",
    "houseNumber": "17",
    "postalCode": "6131HA",
    "city": "Sittard"
  },
  {
    "link": "\/huis-te-huur\/dronryp\/dd210cef\/tsjerkebuorren",
    "site": "pararius",
    "street": "Tsjerkebuorren",
    "houseNumber": "13",
    "postalCode": "9035BA",
    "city": "Dronryp"
  },
  {
    "link": "\/appartement-te-huur\/wapenveld\/0387af33\/de-vree",
    "site": "pararius",
    "street": "de Vree",
    "houseNumber": "4",
    "postalCode": "8191JE",
    "city": "Wapenveld"
  },
  {
    "link": "\/appartement-te-huur\/st-annaparochie\/b429dfee\/dordtse-straat",
    "site": "pararius",
    "street": "Dordtse Straat",
    "houseNumber": "31",
    "postalCode": "9076CL",
    "city": "St.-Annaparochie"
  },
  {
    "link": "\/appartement-te-huur\/sittard\/93c0e53a\/vijverweg",
    "site": "pararius",
    "street": "Vijverweg",
    "houseNumber": "95",
    "postalCode": "6133AX",
    "city": "Sittard"
  },
  {
    "link": "\/appartement-te-huur\/leeuwarden\/6f2dfe69\/europaplein",
    "site": "pararius",
    "street": "Europaplein",
    "houseNumber": "28",
    "postalCode": "8915CM",
    "city": "Leeuwarden"
  },
  {
    "link": "\/huis-te-huur\/heerlen\/a2a036e4\/sittarderweg",
    "site": "pararius",
    "street": "Sittarderweg",
    "houseNumber": "24",
    "postalCode": "6412CG",
    "city": "Heerlen"
  },
  {
    "link": "\/appartement-te-huur\/echt\/b24c4824\/leliestraat",
    "site": "pararius",
    "street": "Leliestraat",
    "houseNumber": "57",
    "postalCode": "6101LS",
    "city": "Echt"
  },
  {
    "link": "\/appartement-te-huur\/kerkrade\/0126596d\/markt",
    "site": "pararius",
    "street": "Markt",
    "houseNumber": "37",
    "postalCode": "6461EC",
    "city": "Kerkrade"
  },
  {
    "link": "\/appartement-te-huur\/helmond\/d571f810\/rijpelplein",
    "site": "pararius",
    "street": "Rijpelplein",
    "houseNumber": "17",
    "postalCode": "5709BT",
    "city": "Helmond"
  },
  {
    "link": "\/appartement-te-huur\/delft\/2c625af8\/oude-delft",
    "site": "pararius",
    "street": "Oude Delft",
    "houseNumber": "33",
    "postalCode": "2611BB",
    "city": "Delft"
  },
  {
    "link": "\/appartement-te-huur\/vries\/ea73a743\/raadhuisplein",
    "site": "pararius",
    "street": "Raadhuisplein",
    "houseNumber": "1",
    "postalCode": "9481BG",
    "city": "Vries"
  },
  {
    "link": "\/appartement-te-huur\/rotterdam\/edd34df0\/granadoslaan",
    "site": "pararius",
    "street": "Granadoslaan",
    "houseNumber": "100",
    "postalCode": "3055RD",
    "city": "Rotterdam"
  },
  {
    "link": "\/appartement-te-huur\/heerlen\/a66bf234\/de-heugden",
    "site": "pararius",
    "street": "De Heugden",
    "houseNumber": "303",
    "postalCode": "6411DW",
    "city": "Heerlen"
  },
  {
    "link": "\/huis-te-huur\/delfzijl\/ebab1f09\/duivenslag",
    "site": "pararius",
    "street": "Duivenslag",
    "houseNumber": "19",
    "postalCode": "9932KJ",
    "city": "Delfzijl"
  },
  {
    "link": "\/appartement-te-huur\/almelo\/a85c05b0\/frederik-van-eedenstraat",
    "site": "pararius",
    "street": "Frederik van Eedenstraat",
    "houseNumber": "6",
    "postalCode": "7606BJ",
    "city": "Almelo"
  },
  {
    "link": "\/appartement-te-huur\/almelo\/8d150908\/frederik-van-eedenstraat",
    "site": "pararius",
    "street": "Frederik van Eedenstraat",
    "houseNumber": "46",
    "postalCode": "7606BJ",
    "city": "Almelo"
  },
  {
    "link": "\/appartement-te-huur\/maastricht\/b47babd1\/holsteinbastion",
    "site": "pararius",
    "street": "Holsteinbastion",
    "houseNumber": "47B -",
    "postalCode": "6217LH",
    "city": "Maastricht"
  },
  {
    "link": "\/appartement-te-huur\/kaatsheuvel\/3617a9ba\/schildersplein",
    "site": "pararius",
    "street": "Schildersplein",
    "houseNumber": "112",
    "postalCode": "5172BC",
    "city": "Kaatsheuvel"
  },
  {
    "link": "\/appartement-te-huur\/panningen\/50361908\/talmastraat",
    "site": "pararius",
    "street": "Talmastraat",
    "houseNumber": "1",
    "postalCode": "5981VJ",
    "city": "Panningen"
  },
  {
    "link": "\/appartement-te-huur\/rotterdam\/c7a4566b\/zweedsestraat",
    "site": "pararius",
    "street": "Zweedsestraat",
    "houseNumber": "123",
    "postalCode": "3028TS",
    "city": "Rotterdam"
  },
  {
    "link": "\/appartement-te-huur\/franeker\/f7f692ef\/ockingahiem",
    "site": "pararius",
    "street": "Ockingahiem",
    "houseNumber": "21",
    "postalCode": "8801KR",
    "city": "Franeker"
  },
  {
    "link": "\/appartement-te-huur\/venlo\/3ff426e7\/de-roskam",
    "site": "pararius",
    "street": "De Roskam",
    "houseNumber": "51",
    "postalCode": "5912JR",
    "city": "Venlo"
  },
  {
    "link": "\/appartement-te-huur\/heerlen\/75fdc39c\/de-heugden",
    "site": "pararius",
    "street": "De Heugden",
    "houseNumber": "319",
    "postalCode": "6411DW",
    "city": "Heerlen"
  },
  {
    "link": "\/appartement-te-huur\/heerlen\/64178d77\/de-heugden",
    "site": "pararius",
    "street": "De Heugden",
    "houseNumber": "341",
    "postalCode": "6411DX",
    "city": "Heerlen"
  },
  {
    "link": "\/appartement-te-huur\/hazerswoude-rijndijk\/f16830bb\/molenlaan",
    "site": "pararius",
    "street": "Molenlaan",
    "houseNumber": "5",
    "postalCode": "2394AR",
    "city": "Hazerswoude-Rijndijk"
  },
  {
    "link": "\/appartement-te-huur\/assen\/36a03a3a\/pelikaanstraat",
    "site": "pararius",
    "street": "Pelikaanstraat",
    "houseNumber": "201",
    "postalCode": "9404CM",
    "city": "Assen"
  },
  {
    "link": "\/huis-te-huur\/margraten\/534efa71\/rijksweg",
    "site": "pararius",
    "street": "Rijksweg",
    "houseNumber": "4",
    "postalCode": "6269AC",
    "city": "Margraten"
  },
  {
    "link": "\/huis-te-huur\/margraten\/700a2e2d\/rijksweg",
    "site": "pararius",
    "street": "Rijksweg",
    "houseNumber": "4",
    "postalCode": "6269AC",
    "city": "Margraten"
  },
  {
    "link": "\/appartement-te-huur\/sittard\/850764f8\/veestraat",
    "site": "pararius",
    "street": "Veestraat",
    "houseNumber": "42",
    "postalCode": "6134VJ",
    "city": "Sittard"
  },
  {
    "link": "\/huis-te-huur\/schiedam\/a91bba84\/broersveld",
    "site": "pararius",
    "street": "Broersveld",
    "houseNumber": "115",
    "postalCode": "3111LE",
    "city": "Schiedam"
  },
  {
    "link": "\/appartement-te-huur\/rotterdam\/9f0d692a\/strevelsweg",
    "site": "pararius",
    "street": "Strevelsweg",
    "houseNumber": "180A",
    "postalCode": "3075AT",
    "city": "Rotterdam"
  },
  {
    "link": "\/appartement-te-huur\/almelo\/e61d9c36\/kerkplein",
    "site": "pararius",
    "street": "Kerkplein",
    "houseNumber": "4",
    "postalCode": "7607BT",
    "city": "Almelo"
  },
  {
    "link": "\/appartement-te-huur\/rijswijk\/5b766e9b\/van-vredenburchweg",
    "site": "pararius",
    "street": "van Vredenburchweg",
    "houseNumber": "835",
    "postalCode": "2284TN",
    "city": "Rijswijk"
  },
  {
    "link": "\/appartement-te-huur\/roermond\/5fdb49a6\/kapellerlaan",
    "site": "pararius",
    "street": "Kapellerlaan",
    "houseNumber": "148",
    "postalCode": "6045AJ",
    "city": "Roermond"
  },
  {
    "link": "\/appartement-te-huur\/den-haag\/85450227\/weimarstraat",
    "site": "pararius",
    "street": "Weimarstraat",
    "houseNumber": "318",
    "postalCode": "2562HT",
    "city": "Den Haag"
  },
  {
    "link": "\/appartement-te-huur\/sittard\/7aea3c1d\/stationsplein",
    "site": "pararius",
    "street": "Stationsplein",
    "houseNumber": "16",
    "postalCode": "6131AT",
    "city": "Sittard"
  },
  {
    "link": "\/appartement-te-huur\/sittard\/c238ca42\/stationsplein",
    "site": "pararius",
    "street": "Stationsplein",
    "houseNumber": "16",
    "postalCode": "6131AT",
    "city": "Sittard"
  },
  {
    "link": "\/appartement-te-huur\/brunssum\/e66fc019\/rumpenerstraat",
    "site": "pararius",
    "street": "Rumpenerstraat",
    "houseNumber": "143HS",
    "postalCode": "6443CC",
    "city": "Brunssum"
  },
  {
    "link": "\/appartement-te-huur\/heerlen\/6a0bbd88\/unolaan",
    "site": "pararius",
    "street": "Unolaan",
    "houseNumber": "2",
    "postalCode": "6413CT",
    "city": "Heerlen"
  },
  {
    "link": "\/appartement-te-huur\/leiden\/189cfa97\/rosenburch",
    "site": "pararius",
    "street": "Rosenburch",
    "houseNumber": "131",
    "postalCode": "2321RD",
    "city": "Leiden"
  },
  {
    "link": "\/appartement-te-huur\/almelo\/9bf32e7e\/boerhaavelaan",
    "site": "pararius",
    "street": "Boerhaavelaan",
    "houseNumber": "6",
    "postalCode": "7607PW",
    "city": "Almelo"
  },
  {
    "link": "\/appartement-te-huur\/emmen\/f9aa56b5\/uilenveld",
    "site": "pararius",
    "street": "Uilenveld",
    "houseNumber": "116",
    "postalCode": "7827GH",
    "city": "Emmen"
  },
  {
    "link": "\/appartement-te-huur\/almelo\/6c1e5b90\/pieter-de-hoochstraat",
    "site": "pararius",
    "street": "Pieter de Hoochstraat",
    "houseNumber": "32",
    "postalCode": "7606EW",
    "city": "Almelo"
  },
  {
    "link": "\/huis-te-huur\/margraten\/85c8530a\/rijksweg",
    "site": "pararius",
    "street": "Rijksweg",
    "houseNumber": "4",
    "postalCode": "6269AC",
    "city": "Margraten"
  },
  {
    "link": "\/studio-te-huur\/enschede\/3baf06eb\/poolmansweg",
    "site": "pararius",
    "street": "Poolmansweg",
    "houseNumber": "101",
    "postalCode": "7545LN",
    "city": "Enschede"
  },
  {
    "link": "\/appartement-te-huur\/hilversum\/10a4b625\/hoge-naarderweg",
    "site": "pararius",
    "street": "Hoge Naarderweg",
    "houseNumber": "28",
    "postalCode": "1217AE",
    "city": "Hilversum"
  },
  {
    "link": "\/appartement-te-huur\/woerden\/747bb358\/molenvlietbrink",
    "site": "pararius",
    "street": "Molenvlietbrink",
    "houseNumber": "11",
    "postalCode": "3448HT",
    "city": "Woerden"
  },
  {
    "link": "\/appartement-te-huur\/weert\/7fe30dcf\/wilhelminasingel",
    "site": "pararius",
    "street": "Wilhelminasingel",
    "houseNumber": "230B",
    "postalCode": "6001GV",
    "city": "Weert"
  },
  {
    "link": "\/appartement-te-huur\/roermond\/133d180e\/monseigneur-driessenstraat",
    "site": "pararius",
    "street": "Monseigneur Driessenstraat",
    "houseNumber": "45",
    "postalCode": "6043CV",
    "city": "Roermond"
  },
  {
    "link": "\/appartement-te-huur\/heerenveen\/27985da1\/van-riesenstraat",
    "site": "pararius",
    "street": "van Riesenstraat",
    "houseNumber": "14",
    "postalCode": "8442CC",
    "city": "Heerenveen"
  },
  {
    "link": "\/appartement-te-huur\/stein\/393d759e\/stadhouderslaan",
    "site": "pararius",
    "street": "Stadhouderslaan",
    "houseNumber": "16",
    "postalCode": "6171KL",
    "city": "Stein"
  },
  {
    "link": "\/appartement-te-huur\/sittard\/684b117b\/rosmolenstraat",
    "site": "pararius",
    "street": "Rosmolenstraat",
    "houseNumber": "24",
    "postalCode": "6131HX",
    "city": "Sittard"
  },
  {
    "link": "\/appartement-te-huur\/sittard\/52e3ccc5\/stationsplein",
    "site": "pararius",
    "street": "Stationsplein",
    "houseNumber": "16",
    "postalCode": "6131AT",
    "city": "Sittard"
  },
  {
    "link": "\/appartement-te-huur\/gulpen\/a28aa2c9\/oude-maastrichterweg",
    "site": "pararius",
    "street": "Oude Maastrichterweg",
    "houseNumber": "15",
    "postalCode": "6271EA",
    "city": "Gulpen"
  },
  {
    "link": "\/appartement-te-huur\/rotterdam\/8812f135\/katendrechtse-lagedijk",
    "site": "pararius",
    "street": "Katendrechtse Lagedijk",
    "houseNumber": "400",
    "postalCode": "3083GR",
    "city": "Rotterdam"
  },
  {
    "link": "\/appartement-te-huur\/sittard\/7e7f3b1d\/cavaleriestraat",
    "site": "pararius",
    "street": "Cavaleriestraat",
    "houseNumber": "192",
    "postalCode": "6135JM",
    "city": "Sittard"
  },
  {
    "link": "\/huis-te-huur\/hengelo\/562d88a6\/uitslagsweg",
    "site": "pararius",
    "street": "Uitslagsweg",
    "houseNumber": "18",
    "postalCode": "7556LR",
    "city": "Hengelo"
  },
  {
    "link": "\/appartement-te-huur\/geleen\/e8e50780\/markt",
    "site": "pararius",
    "street": "Markt",
    "houseNumber": "18",
    "postalCode": "6161GG",
    "city": "Geleen"
  },
  {
    "link": "\/huis-te-huur\/almelo\/111302b6\/grimberglaan",
    "site": "pararius",
    "street": "Grimberglaan",
    "houseNumber": "12",
    "postalCode": "7602BM",
    "city": "Almelo"
  },
  {
    "link": "\/appartement-te-huur\/den-haag\/526db33d\/elisabeth-brugsmaweg",
    "site": "pararius",
    "street": "Elisabeth Brugsmaweg",
    "houseNumber": "1",
    "postalCode": "2555SC",
    "city": "Den Haag"
  },
  {
    "link": "\/huis-te-huur\/utrecht\/2d2af7c0\/mereveldseweg",
    "site": "pararius",
    "street": "Mereveldseweg",
    "houseNumber": "4",
    "postalCode": "3585LH",
    "city": "Utrecht"
  },
  {
    "link": "\/huis-te-huur\/rotterdam\/aefc05df\/bredenoord",
    "site": "pararius",
    "street": "Bredenoord",
    "houseNumber": "200",
    "postalCode": "3079JH",
    "city": "Rotterdam"
  },
  {
    "link": "\/appartement-te-huur\/rotterdam\/5ce2c097\/bredenoord",
    "site": "pararius",
    "street": "Bredenoord",
    "houseNumber": "228",
    "postalCode": "3079JH",
    "city": "Rotterdam"
  },
  {
    "link": "\/appartement-te-huur\/gulpen\/c3a35612\/oude-maastrichterweg",
    "site": "pararius",
    "street": "Oude Maastrichterweg",
    "houseNumber": "15",
    "postalCode": "6271EA",
    "city": "Gulpen"
  },
  {
    "link": "\/appartement-te-huur\/gulpen\/89ec3d41\/oude-maastrichterweg",
    "site": "pararius",
    "street": "Oude Maastrichterweg",
    "houseNumber": "15",
    "postalCode": "6271EA",
    "city": "Gulpen"
  },
  {
    "link": "\/appartement-te-huur\/rotterdam\/721090d7\/moerkerkestraat",
    "site": "pararius",
    "street": "Moerkerkestraat",
    "houseNumber": "53",
    "postalCode": "3081RN",
    "city": "Rotterdam"
  },
  {
    "link": "\/appartement-te-huur\/enkhuizen\/faae317a\/waagstraat",
    "site": "pararius",
    "street": "Waagstraat",
    "houseNumber": "6",
    "postalCode": "1601JN",
    "city": "Enkhuizen"
  },
  {
    "link": "\/huis-te-huur\/margraten\/65a4579b\/rijksweg",
    "site": "pararius",
    "street": "Rijksweg",
    "houseNumber": "4",
    "postalCode": "6269AC",
    "city": "Margraten"
  },
  {
    "link": "\/huis-te-huur\/margraten\/9fe190f2\/rijksweg",
    "site": "pararius",
    "street": "Rijksweg",
    "houseNumber": "8",
    "postalCode": "6269AC",
    "city": "Margraten"
  },
  {
    "link": "\/appartement-te-huur\/bussum\/528e91de\/kapelstraat",
    "site": "pararius",
    "street": "Kapelstraat",
    "houseNumber": "31",
    "postalCode": "1404HV",
    "city": "Bussum"
  },
  {
    "link": "\/huis-te-huur\/obdam\/f7afd130\/dorpsstraat",
    "site": "pararius",
    "street": "Dorpsstraat",
    "houseNumber": "39",
    "postalCode": "1713HB",
    "city": "Obdam"
  },
  {
    "link": "\/huis-te-huur\/margraten\/9fe190f2\/rijksweg",
    "site": "pararius",
    "street": "Rijksweg",
    "houseNumber": "8",
    "postalCode": "6269AC",
    "city": "Margraten"
  },
  {
    "link": "\/appartement-te-huur\/weert\/8ec05911\/beekpoort",
    "site": "pararius",
    "street": "Beekpoort",
    "houseNumber": "98",
    "postalCode": "6001HA",
    "city": "Weert"
  },
  {
    "link": "\/appartement-te-huur\/panningen\/15345eaf\/ringovenpark",
    "site": "pararius",
    "street": "Ringovenpark",
    "houseNumber": "30",
    "postalCode": "5981AK",
    "city": "Panningen"
  },
  {
    "link": "\/appartement-te-huur\/voorburg\/d31d1ff3\/koningin-julianalaan",
    "site": "pararius",
    "street": "Koningin Julianalaan",
    "houseNumber": "330",
    "postalCode": "2274JT",
    "city": "Voorburg"
  },
  {
    "link": "\/appartement-te-huur\/heiloo\/396f5535\/de-sonneveld",
    "site": "pararius",
    "street": "De Sonneveld",
    "houseNumber": "38",
    "postalCode": "1851WB",
    "city": "Heiloo"
  },
  {
    "link": "\/appartement-te-huur\/westervoort\/29169bf7\/het-ambacht",
    "site": "pararius",
    "street": "Het Ambacht",
    "houseNumber": "58",
    "postalCode": "6931EZ",
    "city": "Westervoort"
  },
  {
    "link": "\/appartement-te-huur\/doorwerth\/41b39a89\/beethovenlaan",
    "site": "pararius",
    "street": "Beethovenlaan",
    "houseNumber": "305",
    "postalCode": "6865DS",
    "city": "Doorwerth"
  },
  {
    "link": "\/huis-te-huur\/joure\/fdde8aac\/prinses-margrietstraat",
    "site": "pararius",
    "street": "Prinses Margrietstraat",
    "houseNumber": "3",
    "postalCode": "8501HZ",
    "city": "Joure"
  },
  {
    "link": "\/appartement-te-huur\/zaandam\/7840a6f0\/letterhout",
    "site": "pararius",
    "street": "Letterhout",
    "houseNumber": "94",
    "postalCode": "1507EG",
    "city": "Zaandam"
  },
  {
    "link": "\/huis-te-huur\/heerenveen\/d527801f\/trekker",
    "site": "pararius",
    "street": "Trekker",
    "houseNumber": "278",
    "postalCode": "8447BZ",
    "city": "Heerenveen"
  },
  {
    "link": "\/appartement-te-huur\/oegstgeest\/d9941e47\/aert-van-neslaan",
    "site": "pararius",
    "street": "Aert van Neslaan",
    "houseNumber": "435",
    "postalCode": "2341HR",
    "city": "Oegstgeest"
  },
  {
    "link": "\/appartement-te-huur\/sittard\/39a202ae\/wilhelminastraat",
    "site": "pararius",
    "street": "Wilhelminastraat",
    "houseNumber": "12",
    "postalCode": "6131KN",
    "city": "Sittard"
  },
  {
    "link": "\/appartement-te-huur\/deventer\/ab44d8af\/boxbergerweg",
    "site": "pararius",
    "street": "Boxbergerweg",
    "houseNumber": "60",
    "postalCode": "7412BE",
    "city": "Deventer"
  },
  {
    "link": "\/appartement-te-huur\/heerlen\/fac01f28\/van-der-maesenstraat",
    "site": "pararius",
    "street": "Van der Maesenstraat",
    "houseNumber": "34",
    "postalCode": "6411LP",
    "city": "Heerlen"
  },
  {
    "link": "\/appartement-te-huur\/leeuwarden\/ea5fdbd5\/groningerstraatweg",
    "site": "pararius",
    "street": "Groningerstraatweg",
    "houseNumber": "61",
    "postalCode": "8922GA",
    "city": "Leeuwarden"
  },
  {
    "link": "\/appartement-te-huur\/woudenberg\/424eab09\/ridderhof",
    "site": "pararius",
    "street": "Ridderhof",
    "houseNumber": "6",
    "postalCode": "3931XZ",
    "city": "Woudenberg"
  },
  {
    "link": "\/appartement-te-huur\/heerhugowaard\/cd27112e\/middenweg",
    "site": "pararius",
    "street": "Middenweg",
    "houseNumber": "453",
    "postalCode": "1704BB",
    "city": "Heerhugowaard"
  },
  {
    "link": "\/huis-te-huur\/margraten\/843ecbe5\/rijksweg",
    "site": "pararius",
    "street": "Rijksweg",
    "houseNumber": "4",
    "postalCode": "6269AC",
    "city": "Margraten"
  },
  {
    "link": "\/appartement-te-huur\/hengelo\/9b133f02\/marskant",
    "site": "pararius",
    "street": "Marskant",
    "houseNumber": "31",
    "postalCode": "7551BS",
    "city": "Hengelo"
  },
  {
    "link": "\/appartement-te-huur\/weert\/b41c4fa2\/pales",
    "site": "pararius",
    "street": "Pales",
    "houseNumber": "1",
    "postalCode": "6001VA",
    "city": "Weert"
  },
  {
    "link": "\/huis-te-huur\/delden\/a3189c19\/molenstraat",
    "site": "pararius",
    "street": "Molenstraat",
    "houseNumber": "16",
    "postalCode": "7491BG",
    "city": "Delden"
  },
  {
    "link": "\/huis-te-huur\/sittard\/a0e631f9\/limbrichterweg",
    "site": "pararius",
    "street": "Limbrichterweg",
    "houseNumber": "20",
    "postalCode": "6135GG",
    "city": "Sittard"
  },
  {
    "link": "\/appartement-te-huur\/vlissingen\/5e9cce0e\/paul-krugerstraat",
    "site": "pararius",
    "street": "Paul Krugerstraat",
    "houseNumber": "396",
    "postalCode": "4381WT",
    "city": "Vlissingen"
  },
  {
    "link": "\/huis-te-huur\/almelo\/6fa61827\/kieftsbeeklaan",
    "site": "pararius",
    "street": "Kieftsbeeklaan",
    "houseNumber": "36",
    "postalCode": "7607TA",
    "city": "Almelo"
  },
  {
    "link": "\/huis-te-huur\/almelo\/b60bbc66\/bosstraat",
    "site": "pararius",
    "street": "Bosstraat",
    "houseNumber": "19",
    "postalCode": "7606CD",
    "city": "Almelo"
  },
  {
    "link": "\/appartement-te-huur\/bussum\/614834f6\/claudiagaarde",
    "site": "pararius",
    "street": "Claudiagaarde",
    "houseNumber": "28",
    "postalCode": "1403JP",
    "city": "Bussum"
  },
  {
    "link": "\/huis-te-huur\/herkenbosch\/a8362acb\/europalaan-centrum",
    "site": "pararius",
    "street": "Europalaan-Centrum",
    "houseNumber": "37",
    "postalCode": "6075BV",
    "city": "Herkenbosch"
  },
  {
    "link": "\/appartement-te-huur\/apeldoorn\/5229890d\/ijsselstraat",
    "site": "pararius",
    "street": "IJsselstraat",
    "houseNumber": "4",
    "postalCode": "7333HM",
    "city": "Apeldoorn"
  },
  {
    "link": "\/appartement-te-huur\/rotterdam\/dbe2a9f9\/hoge-filterweg",
    "site": "pararius",
    "street": "Hoge Filterweg",
    "houseNumber": "24",
    "postalCode": "3063KA",
    "city": "Rotterdam"
  },
  {
    "link": "\/appartement-te-huur\/loenen-aan-de-vecht\/4cedb53b\/brugstraat",
    "site": "pararius",
    "street": "Brugstraat",
    "houseNumber": "2",
    "postalCode": "3632EH",
    "city": "Loenen aan de Vecht"
  },
  {
    "link": "\/huis-te-huur\/biervliet-terneuzen\/3967ece9\/burg-maarleveldstraat",
    "site": "pararius",
    "street": "Burg. Maarleveldstraat",
    "houseNumber": "14",
    "postalCode": "4521BJ",
    "city": "Biervliet"
  },
  {
    "link": "\/huis-te-huur\/heerlen\/cf08914f\/hamster",
    "site": "pararius",
    "street": "Hamster",
    "houseNumber": "4",
    "postalCode": "6416WB",
    "city": "Heerlen"
  },
  {
    "link": "\/appartement-te-huur\/enschede\/0f88bd91\/hengelosestraat",
    "site": "pararius",
    "street": "Hengelosestraat",
    "houseNumber": "32",
    "postalCode": "7514AH",
    "city": "Enschede"
  },
  {
    "link": "\/appartement-te-huur\/rotterdam\/7ebba09e\/beijerlandselaan",
    "site": "pararius",
    "street": "Beijerlandselaan",
    "houseNumber": "76",
    "postalCode": "3074EM",
    "city": "Rotterdam"
  },
  {
    "link": "\/appartement-te-huur\/schiedam\/a8eb686b\/delflandseweg",
    "site": "pararius",
    "street": "Delflandseweg",
    "houseNumber": "255",
    "postalCode": "3119XW",
    "city": "Schiedam"
  },
  {
    "link": "\/appartement-te-huur\/maarn\/9f4fa838\/burg-everwijn-langepln",
    "site": "pararius",
    "street": "Burg Everwijn Langepln",
    "houseNumber": "2",
    "postalCode": "3951BX",
    "city": "Maarn"
  },
  {
    "link": "\/appartement-te-huur\/rotterdam\/6976dc94\/backershagen",
    "site": "pararius",
    "street": "Backershagen",
    "houseNumber": "406",
    "postalCode": "3078SB",
    "city": "Rotterdam"
  },
  {
    "link": "\/huis-te-huur\/gulpen\/3620d2ca\/rijksweg",
    "site": "pararius",
    "street": "Rijksweg",
    "houseNumber": "68",
    "postalCode": "6271AG",
    "city": "Gulpen"
  },
  {
    "link": "\/appartement-te-huur\/leeuwarden\/eb8dbe6e\/goudsbloemstraat",
    "site": "pararius",
    "street": "Goudsbloemstraat",
    "houseNumber": "2",
    "postalCode": "8922GW",
    "city": "Leeuwarden"
  },
  {
    "link": "\/appartement-te-huur\/den-haag\/4821e656\/bussumsestraat",
    "site": "pararius",
    "street": "Bussumsestraat",
    "houseNumber": "29",
    "postalCode": "2574JA",
    "city": "Den Haag"
  },
  {
    "link": "\/appartement-te-huur\/leeuwarden\/d2249c73\/tuinen",
    "site": "pararius",
    "street": "Tuinen",
    "houseNumber": "8",
    "postalCode": "8911KD",
    "city": "Leeuwarden"
  },
  {
    "link": "\/appartement-te-huur\/doetinchem\/49221955\/handelskade",
    "site": "pararius",
    "street": "Handelskade",
    "houseNumber": "172",
    "postalCode": "7005AL",
    "city": "Doetinchem"
  },
  {
    "link": "\/appartement-te-huur\/arnhem\/ecfd79b0\/engelwortelstraat",
    "site": "pararius",
    "street": "Engelwortelstraat",
    "houseNumber": "6",
    "postalCode": "6833GX",
    "city": "Arnhem"
  },
  {
    "link": "\/studio-te-huur\/maastricht\/7718b55e\/van-hasseltkade",
    "site": "pararius",
    "street": "van Hasseltkade",
    "houseNumber": "13",
    "postalCode": "6211CC",
    "city": "Maastricht"
  },
  {
    "link": "\/appartement-te-huur\/langeweg\/c8bfddff\/de-langeweg",
    "site": "pararius",
    "street": "De Langeweg",
    "houseNumber": "46",
    "postalCode": "4771RC",
    "city": "Langeweg"
  },
  {
    "link": "\/huis-te-huur\/kerkrade\/8e34572c\/marktstraat",
    "site": "pararius",
    "street": "Marktstraat",
    "houseNumber": "40",
    "postalCode": "6461CZ",
    "city": "Kerkrade"
  },
  {
    "link": "\/huis-te-huur\/kerkrade\/8e34572c\/marktstraat",
    "site": "pararius",
    "street": "Marktstraat",
    "houseNumber": "40",
    "postalCode": "6461CZ",
    "city": "Kerkrade"
  },
  {
    "link": "\/appartement-te-huur\/roermond\/7fd8f4e3\/willem-ii-singel",
    "site": "pararius",
    "street": "Willem II Singel",
    "houseNumber": "4C",
    "postalCode": "6041HS",
    "city": "Roermond"
  },
  {
    "link": "\/appartement-te-huur\/huissen\/8aeac633\/baron-van-spittaellaan",
    "site": "pararius",
    "street": "Baron Van Spittaellaan",
    "houseNumber": "1",
    "postalCode": "6851NT",
    "city": "Huissen"
  },
  {
    "link": "\/huis-te-huur\/almelo\/08d0308c\/oosteres",
    "site": "pararius",
    "street": "Oosteres",
    "houseNumber": "16",
    "postalCode": "7607AN",
    "city": "Almelo"
  },
  {
    "link": "\/appartement-te-huur\/schiedam\/e82ca418\/burgemeester-van-haarenlaan",
    "site": "pararius",
    "street": "Burgemeester Van Haarenlaan",
    "houseNumber": "1352",
    "postalCode": "3118GP",
    "city": "Schiedam"
  },
  {
    "link": "\/appartement-te-huur\/arnhem\/48a3039e\/pauwstraat",
    "site": "pararius",
    "street": "Pauwstraat",
    "houseNumber": "3",
    "postalCode": "6811GK",
    "city": "Arnhem"
  },
  {
    "link": "\/huis-te-huur\/hoogvliet-rotterdam\/1d68cc20\/ferdinand-huyckstraat",
    "site": "pararius",
    "street": "Ferdinand Huyckstraat",
    "houseNumber": "11",
    "postalCode": "3193PB",
    "city": "Hoogvliet Rotterdam"
  },
  {
    "link": "\/huis-te-huur\/leeuwarden\/5e258193\/sumatrastraat",
    "site": "pararius",
    "street": "Sumatrastraat",
    "houseNumber": "5",
    "postalCode": "8921JC",
    "city": "Leeuwarden"
  },
  {
    "link": "\/appartement-te-huur\/den-haag\/1cb0338d\/isingstraat",
    "site": "pararius",
    "street": "Isingstraat",
    "houseNumber": "2",
    "postalCode": "2522JZ",
    "city": "Den Haag"
  },
  {
    "link": "\/appartement-te-huur\/waddinxveen\/c1829a33\/raadhuisplein",
    "site": "pararius",
    "street": "Raadhuisplein",
    "houseNumber": "70",
    "postalCode": "2741HR",
    "city": "Waddinxveen"
  },
  {
    "link": "\/appartement-te-huur\/roermond\/0409871b\/kruisherenstraat",
    "site": "pararius",
    "street": "Kruisherenstraat",
    "houseNumber": "3",
    "postalCode": "6041HK",
    "city": "Roermond"
  },
  {
    "link": "\/appartement-te-huur\/capelle-aan-den-ijssel\/c1598a00\/frederik-van-eedenplaats",
    "site": "pararius",
    "street": "Frederik van Eedenplaats",
    "houseNumber": "147",
    "postalCode": "2902VD",
    "city": "Capelle aan den IJssel"
  },
  {
    "link": "\/huis-te-huur\/heerlen\/edec46e3\/parkweg",
    "site": "pararius",
    "street": "Parkweg",
    "houseNumber": "19",
    "postalCode": "6414HL",
    "city": "Heerlen"
  },
  {
    "link": "\/appartement-te-huur\/ede\/be7e04ed\/valkestein",
    "site": "pararius",
    "street": "Valkestein",
    "houseNumber": "901",
    "postalCode": "6714BC",
    "city": "Ede"
  },
  {
    "link": "\/huis-te-huur\/almelo\/74000568\/gagelstraat",
    "site": "pararius",
    "street": "Gagelstraat",
    "houseNumber": "33",
    "postalCode": "7601CM",
    "city": "Almelo"
  },
  {
    "link": "\/appartement-te-huur\/groningen\/a92943ac\/rengersstraat",
    "site": "pararius",
    "street": "Rengersstraat",
    "houseNumber": "21",
    "postalCode": "9721CS",
    "city": "Groningen"
  },
  {
    "link": "\/appartement-te-huur\/alkmaar\/5cff810a\/winkelwaard",
    "site": "pararius",
    "street": "Winkelwaard",
    "houseNumber": "228",
    "postalCode": "1824HP",
    "city": "Alkmaar"
  },
  {
    "link": "\/appartement-te-huur\/steenbergen-nb\/0338508f\/kleine-kerkstraat",
    "site": "pararius",
    "street": "Kleine Kerkstraat",
    "houseNumber": "1",
    "postalCode": "4651EV",
    "city": "Steenbergen"
  },
  {
    "link": "\/huis-te-huur\/heerlen\/d1781a89\/roebroekweg",
    "site": "pararius",
    "street": "Roebroekweg",
    "houseNumber": "81",
    "postalCode": "6414BB",
    "city": "Heerlen"
  },
  {
    "link": "\/appartement-te-huur\/den-haag\/1630dfab\/gaslaan",
    "site": "pararius",
    "street": "Gaslaan",
    "houseNumber": "273",
    "postalCode": "2562LG",
    "city": "Den Haag"
  },
  {
    "link": "\/appartement-te-huur\/den-haag\/b2a5f360\/de-genestetlaan",
    "site": "pararius",
    "street": "De Genestetlaan",
    "houseNumber": "46",
    "postalCode": "2522LN",
    "city": "Den Haag"
  },
  {
    "link": "\/appartement-te-huur\/rotterdam\/56cdfc26\/essenburgsingel",
    "site": "pararius",
    "street": "Essenburgsingel",
    "houseNumber": "36A",
    "postalCode": "3021AP",
    "city": "Rotterdam"
  },
  {
    "link": "\/appartement-te-huur\/maastricht\/524eab3d\/stellalunet",
    "site": "pararius",
    "street": "Stellalunet",
    "houseNumber": "24",
    "postalCode": "6221JG",
    "city": "Maastricht"
  },
  {
    "link": "\/appartement-te-huur\/ijsselstein\/c042718f\/de-biezen",
    "site": "pararius",
    "street": "de Biezen",
    "houseNumber": "16",
    "postalCode": "3401GD",
    "city": "IJsselstein"
  },
  {
    "link": "\/huis-te-huur\/maastricht\/ebcc81c4\/breemakkergaard",
    "site": "pararius",
    "street": "Breemakkergaard",
    "houseNumber": "77",
    "postalCode": "6227HR",
    "city": "Maastricht"
  },
  {
    "link": "\/appartement-te-huur\/maastricht\/0d96bc2b\/boschstraat",
    "site": "pararius",
    "street": "Boschstraat",
    "houseNumber": "88",
    "postalCode": "6211AZ",
    "city": "Maastricht"
  },
  {
    "link": "\/appartement-te-huur\/rotterdam\/5441227d\/buitenbassinweg",
    "site": "pararius",
    "street": "Buitenbassinweg",
    "houseNumber": "166",
    "postalCode": "3063TB",
    "city": "Rotterdam"
  },
  {
    "link": "\/appartement-te-huur\/purmerend\/1df5714d\/burgemeester-d-kooimanweg",
    "site": "pararius",
    "street": "Burgemeester D. Kooimanweg",
    "houseNumber": "677",
    "postalCode": "1444CA",
    "city": "Purmerend"
  },
  {
    "link": "\/appartement-te-huur\/purmerend\/778bfb00\/kraggeveenstraat",
    "site": "pararius",
    "street": "Kraggeveenstraat",
    "houseNumber": "7",
    "postalCode": "1441MK",
    "city": "Purmerend"
  },
  {
    "link": "\/studio-te-huur\/zeist\/a2146a06\/steynlaan",
    "site": "pararius",
    "street": "Steynlaan",
    "houseNumber": "93",
    "postalCode": "3701ED",
    "city": "Zeist"
  },
  {
    "link": "\/huis-te-huur\/hengelo\/a52bccc5\/tom-mandersstraat",
    "site": "pararius",
    "street": "Tom Mandersstraat",
    "houseNumber": "9",
    "postalCode": "7558MS",
    "city": "Hengelo"
  },
  {
    "link": "\/appartement-te-huur\/rotterdam\/fee316da\/brede-hilledijk",
    "site": "pararius",
    "street": "Brede Hilledijk",
    "houseNumber": "218",
    "postalCode": "3072NK",
    "city": "Rotterdam"
  },
  {
    "link": "\/appartement-te-huur\/weert\/e99cf209\/pales",
    "site": "pararius",
    "street": "Pales",
    "houseNumber": "7",
    "postalCode": "6001VA",
    "city": "Weert"
  },
  {
    "link": "\/huis-te-huur\/bergen-op-zoom\/8418c445\/zuiderdreef",
    "site": "pararius",
    "street": "Zuiderdreef",
    "houseNumber": "8",
    "postalCode": "4616AJ",
    "city": "Bergen op Zoom"
  },
  {
    "link": "\/huis-te-huur\/geertruidenberg\/1ef7c6ea\/willem-van-oranjestraat",
    "site": "pararius",
    "street": "Willem van Oranjestraat",
    "houseNumber": "9",
    "postalCode": "4931NJ",
    "city": "Geertruidenberg"
  },
  {
    "link": "\/appartement-te-huur\/zwolle\/68bbaa6c\/assendorperstraat",
    "site": "pararius",
    "street": "Assendorperstraat",
    "houseNumber": "60",
    "postalCode": "8012CA",
    "city": "Zwolle"
  },
  {
    "link": "\/huis-te-huur\/hoogvliet-rotterdam\/b64dbe29\/paljaspad",
    "site": "pararius",
    "street": "Paljaspad",
    "houseNumber": "2",
    "postalCode": "3194JH",
    "city": "Hoogvliet Rotterdam"
  },
  {
    "link": "\/appartement-te-huur\/groningen\/3b1ba1af\/coendersweg",
    "site": "pararius",
    "street": "Coendersweg",
    "houseNumber": "15",
    "postalCode": "9722GA",
    "city": "Groningen"
  },
  {
    "link": "\/appartement-te-huur\/tilburg\/169952ea\/koopvaardijstraat",
    "site": "pararius",
    "street": "Koopvaardijstraat",
    "houseNumber": "15",
    "postalCode": "5017BE",
    "city": "Tilburg"
  },
  {
    "link": "\/huis-te-huur\/maurik\/56e71b7f\/eiland-van-maurik",
    "site": "pararius",
    "street": "Eiland van Maurik",
    "houseNumber": "7",
    "postalCode": "4021GG",
    "city": "Maurik"
  },
  {
    "link": "\/appartement-te-huur\/apeldoorn\/c4286942\/beekstraat",
    "site": "pararius",
    "street": "Beekstraat",
    "houseNumber": "16",
    "postalCode": "7311LG",
    "city": "Apeldoorn"
  },
  {
    "link": "\/appartement-te-huur\/rotterdam\/a264d52e\/sternstraat",
    "site": "pararius",
    "street": "Sternstraat",
    "houseNumber": "19",
    "postalCode": "3083ZT",
    "city": "Rotterdam"
  },
  {
    "link": "\/appartement-te-huur\/bilthoven\/c6e8d0c7\/hugo-van-der-goeslaan",
    "site": "pararius",
    "street": "Hugo van der Goeslaan",
    "houseNumber": "37",
    "postalCode": "3723WL",
    "city": "Bilthoven"
  },
  {
    "link": "\/huis-te-huur\/weert\/85bfba15\/paltrokmolen",
    "site": "pararius",
    "street": "Paltrokmolen",
    "houseNumber": "33",
    "postalCode": "6003CT",
    "city": "Weert"
  },
  {
    "link": "\/appartement-te-huur\/bussum\/fb704ecf\/landstraat",
    "site": "pararius",
    "street": "Landstraat",
    "houseNumber": "37",
    "postalCode": "1404JE",
    "city": "Bussum"
  },
  {
    "link": "\/appartement-te-huur\/hoogvliet-rotterdam\/c9b75789\/bijster",
    "site": "pararius",
    "street": "Bijster",
    "houseNumber": "33",
    "postalCode": "3191SB",
    "city": "Hoogvliet Rotterdam"
  },
  {
    "link": "\/appartement-te-huur\/den-haag\/0ef394cd\/nicolaas-tulpstraat",
    "site": "pararius",
    "street": "Nicolaas Tulpstraat",
    "houseNumber": "84",
    "postalCode": "2563XN",
    "city": "Den Haag"
  },
  {
    "link": "\/huis-te-huur\/hengelo\/58fadc22\/tom-mandersstraat",
    "site": "pararius",
    "street": "Tom Mandersstraat",
    "houseNumber": "39",
    "postalCode": "7558MT",
    "city": "Hengelo"
  },
  {
    "link": "\/appartement-te-huur\/leidschendam\/1cb2b9a1\/prinsenhof",
    "site": "pararius",
    "street": "Prinsenhof",
    "houseNumber": "37",
    "postalCode": "2263EV",
    "city": "Leidschendam"
  },
  {
    "link": "\/appartement-te-huur\/den-haag\/0ef394cd\/nicolaas-tulpstraat",
    "site": "pararius",
    "street": "Nicolaas Tulpstraat",
    "houseNumber": "84",
    "postalCode": "2563XN",
    "city": "Den Haag"
  },
  {
    "link": "\/huis-te-huur\/hoensbroek\/501e1902\/nieuwstraat",
    "site": "pararius",
    "street": "Nieuwstraat",
    "houseNumber": "150",
    "postalCode": "6431KX",
    "city": "Hoensbroek"
  },
  {
    "link": "\/appartement-te-huur\/rotterdam\/8d3081da\/socratesstraat",
    "site": "pararius",
    "street": "Socratesstraat",
    "houseNumber": "113",
    "postalCode": "3076BT",
    "city": "Rotterdam"
  },
  {
    "link": "\/appartement-te-huur\/rotterdam\/f3f0269f\/waterloostraat",
    "site": "pararius",
    "street": "Waterloostraat",
    "houseNumber": "48",
    "postalCode": "3062TR",
    "city": "Rotterdam"
  },
  {
    "link": "\/appartement-te-huur\/born\/24fe5417\/kapelweg",
    "site": "pararius",
    "street": "Kapelweg",
    "houseNumber": "32",
    "postalCode": "6121JC",
    "city": "Born"
  },
  {
    "link": "\/appartement-te-huur\/groningen\/1a2161e1\/oudeweg",
    "site": "pararius",
    "street": "Oudeweg",
    "houseNumber": "117",
    "postalCode": "9711TJ",
    "city": "Groningen"
  },
  {
    "link": "\/appartement-te-huur\/purmerend\/a70b57bf\/kraggeveenstraat",
    "site": "pararius",
    "street": "Kraggeveenstraat",
    "houseNumber": "15",
    "postalCode": "1441MK",
    "city": "Purmerend"
  },
  {
    "link": "\/appartement-te-huur\/harderwijk\/b4a57086\/havenspoor",
    "site": "pararius",
    "street": "Havenspoor",
    "houseNumber": "175",
    "postalCode": "3841KZ",
    "city": "Harderwijk"
  },
  {
    "link": "\/huis-te-huur\/lomm\/a2e905ed\/maaszicht",
    "site": "pararius",
    "street": "Maaszicht",
    "houseNumber": "6",
    "postalCode": "5943BL",
    "city": "Lomm"
  },
  {
    "link": "\/appartement-te-huur\/leiden\/504c111a\/bronkhorststraat",
    "site": "pararius",
    "street": "Bronkhorststraat",
    "houseNumber": "43",
    "postalCode": "2316SZ",
    "city": "Leiden"
  },
  {
    "link": "\/appartement-te-huur\/emmen\/b14adb9d\/raadhuisplein",
    "site": "pararius",
    "street": "Raadhuisplein",
    "houseNumber": "28",
    "postalCode": "7811AP",
    "city": "Emmen"
  },
  {
    "link": "\/appartement-te-huur\/arnhem\/e7ff4c1c\/ir-j-p-van-muijlwijkstraat",
    "site": "pararius",
    "street": "Ir J.P. van Muijlwijkstraat",
    "houseNumber": "68",
    "postalCode": "6828BT",
    "city": "Arnhem"
  },
  {
    "link": "\/appartement-te-huur\/arnhem\/9d89f26e\/wielakkerstraat",
    "site": "pararius",
    "street": "Wielakkerstraat",
    "houseNumber": "2",
    "postalCode": "6811DB",
    "city": "Arnhem"
  },
  {
    "link": "\/appartement-te-huur\/heerhugowaard\/5c3c26c1\/de-groene-trede",
    "site": "pararius",
    "street": "De Groene Trede",
    "houseNumber": "51",
    "postalCode": "1704AE",
    "city": "Heerhugowaard"
  },
  {
    "link": "\/appartement-te-huur\/apeldoorn\/77e7a2f2\/vosselmanstraat",
    "site": "pararius",
    "street": "Vosselmanstraat",
    "houseNumber": "286",
    "postalCode": "7311CL",
    "city": "Apeldoorn"
  },
  {
    "link": "\/appartement-te-huur\/gennep\/7358e974\/brugstraat",
    "site": "pararius",
    "street": "Brugstraat",
    "houseNumber": "5",
    "postalCode": "6591BA",
    "city": "Gennep"
  },
  {
    "link": "\/huis-te-huur\/heerenveen\/77695fe7\/rozenstraat",
    "site": "pararius",
    "street": "Rozenstraat",
    "houseNumber": "27",
    "postalCode": "8441DX",
    "city": "Heerenveen"
  },
  {
    "link": "\/appartement-te-huur\/delft\/c37ca256\/brabantse-turfmarkt",
    "site": "pararius",
    "street": "Brabantse Turfmarkt",
    "houseNumber": "76",
    "postalCode": "2611CP",
    "city": "Delft"
  },
  {
    "link": "\/appartement-te-huur\/leiden\/9899ff58\/stevensbloem",
    "site": "pararius",
    "street": "Stevensbloem",
    "houseNumber": "115",
    "postalCode": "2331JB",
    "city": "Leiden"
  },
  {
    "link": "\/huis-te-huur\/wapenveld\/b2ef3bee\/boskolk",
    "site": "pararius",
    "street": "Boskolk",
    "houseNumber": "11",
    "postalCode": "8191TL",
    "city": "Wapenveld"
  },
  {
    "link": "\/appartement-te-huur\/maastricht\/a7f202de\/atletenbaan",
    "site": "pararius",
    "street": "Atletenbaan",
    "houseNumber": "86",
    "postalCode": "6225XZ",
    "city": "Maastricht"
  },
  {
    "link": "\/huis-te-huur\/markelo\/9067bb78\/potdijk",
    "site": "pararius",
    "street": "Potdijk",
    "houseNumber": "8",
    "postalCode": "7475SL",
    "city": "Markelo"
  },
  {
    "link": "\/appartement-te-huur\/den-haag\/7d45e781\/westduinweg",
    "site": "pararius",
    "street": "Westduinweg",
    "houseNumber": "66",
    "postalCode": "2583EK",
    "city": "Den Haag"
  },
  {
    "link": "\/appartement-te-huur\/spaubeek\/bf570a80\/bongerd",
    "site": "pararius",
    "street": "Bongerd",
    "houseNumber": "38",
    "postalCode": "6176AW",
    "city": "Spaubeek"
  },
  {
    "link": "\/appartement-te-huur\/rotterdam\/91257cf1\/willem-de-zwijgerstraat",
    "site": "pararius",
    "street": "Willem de Zwijgerstraat",
    "houseNumber": "21",
    "postalCode": "3043VA",
    "city": "Rotterdam"
  },
  {
    "link": "\/appartement-te-huur\/alkmaar\/aed4d21b\/keetgracht",
    "site": "pararius",
    "street": "Keetgracht",
    "houseNumber": "20",
    "postalCode": "1811AL",
    "city": "Alkmaar"
  },
  {
    "link": "\/appartement-te-huur\/hilversum\/639341fd\/ehrlichstraat",
    "site": "pararius",
    "street": "Ehrlichstraat",
    "houseNumber": "13",
    "postalCode": "1221JB",
    "city": "Hilversum"
  },
  {
    "link": "\/appartement-te-huur\/venlo\/373704f7\/dokter-aletta-jacobsstraat",
    "site": "pararius",
    "street": "Dokter Aletta Jacobsstraat",
    "houseNumber": "27",
    "postalCode": "5911DC",
    "city": "Venlo"
  },
  {
    "link": "\/appartement-te-huur\/vessem\/e75578cb\/jan-smuldersstraat",
    "site": "pararius",
    "street": "Jan Smuldersstraat",
    "houseNumber": "20",
    "postalCode": "5512AZ",
    "city": "Vessem"
  },
  {
    "link": "\/appartement-te-huur\/groningen\/310995c5\/wenckebachlaan",
    "site": "pararius",
    "street": "Wenckebachlaan",
    "houseNumber": "26",
    "postalCode": "9728JH",
    "city": "Groningen"
  },
  {
    "link": "\/appartement-te-huur\/groningen\/2f66944d\/tweede-willemstraat",
    "site": "pararius",
    "street": "Tweede Willemstraat",
    "houseNumber": "8",
    "postalCode": "9725JJ",
    "city": "Groningen"
  },
  {
    "link": "\/appartement-te-huur\/zeist\/8e70187e\/slotlaan",
    "site": "pararius",
    "street": "Slotlaan",
    "houseNumber": "96",
    "postalCode": "3701GP",
    "city": "Zeist"
  },
  {
    "link": "\/appartement-te-huur\/den-haag\/e46def58\/smaragdhorst",
    "site": "pararius",
    "street": "Smaragdhorst",
    "houseNumber": "316",
    "postalCode": "2592RX",
    "city": "Den Haag"
  },
  {
    "link": "\/huis-te-huur\/hilversum\/12f798e8\/oosterengweg",
    "site": "pararius",
    "street": "Oosterengweg",
    "houseNumber": "43",
    "postalCode": "1223RA",
    "city": "Hilversum"
  },
  {
    "link": "\/appartement-te-huur\/almere\/90ad1e9e\/zaagvisplantsoen",
    "site": "pararius",
    "street": "Zaagvisplantsoen",
    "houseNumber": "47",
    "postalCode": "1317HN",
    "city": "Almere"
  },
  {
    "link": "\/huis-te-huur\/soesterberg\/5303df78\/farman",
    "site": "pararius",
    "street": "Farman",
    "houseNumber": "21",
    "postalCode": "3769JD",
    "city": "Soesterberg"
  },
  {
    "link": "\/appartement-te-huur\/tilburg\/81599ee3\/koopvaardijstraat",
    "site": "pararius",
    "street": "Koopvaardijstraat",
    "houseNumber": "15",
    "postalCode": "5017BE",
    "city": "Tilburg"
  },
  {
    "link": "\/appartement-te-huur\/tilburg\/a9f4d73d\/koopvaardijstraat",
    "site": "pararius",
    "street": "Koopvaardijstraat",
    "houseNumber": "23",
    "postalCode": "5017BE",
    "city": "Tilburg"
  },
  {
    "link": "\/appartement-te-huur\/driebergen-rijsenburg\/39dd43fa\/park-seminarie",
    "site": "pararius",
    "street": "Park Seminarie",
    "houseNumber": "26",
    "postalCode": "3971SB",
    "city": "Driebergen-Rijsenburg"
  },
  {
    "link": "\/huis-te-huur\/bergen-op-zoom\/d2569980\/zuiderdreef",
    "site": "pararius",
    "street": "Zuiderdreef",
    "houseNumber": "30",
    "postalCode": "4616AJ",
    "city": "Bergen op Zoom"
  },
  {
    "link": "\/appartement-te-huur\/gorinchem\/043c3cce\/kruithoorn",
    "site": "pararius",
    "street": "Kruithoorn",
    "houseNumber": "126",
    "postalCode": "4208CJ",
    "city": "Gorinchem"
  },
  {
    "link": "\/appartement-te-huur\/gorinchem\/283d0ca4\/kruithoorn",
    "site": "pararius",
    "street": "Kruithoorn",
    "houseNumber": "174",
    "postalCode": "4208CJ",
    "city": "Gorinchem"
  },
  {
    "link": "\/appartement-te-huur\/gorinchem\/1b047e33\/kruithoorn",
    "site": "pararius",
    "street": "Kruithoorn",
    "houseNumber": "84",
    "postalCode": "4208CJ",
    "city": "Gorinchem"
  },
  {
    "link": "\/appartement-te-huur\/gorinchem\/66037041\/kruithoorn",
    "site": "pararius",
    "street": "Kruithoorn",
    "houseNumber": "78",
    "postalCode": "4208CJ",
    "city": "Gorinchem"
  },
  {
    "link": "\/huis-te-huur\/heerlen\/93921b79\/valkenburgerweg",
    "site": "pararius",
    "street": "Valkenburgerweg",
    "houseNumber": "26",
    "postalCode": "6411BN",
    "city": "Heerlen"
  },
  {
    "link": "\/appartement-te-huur\/wageningen\/d7d7b905\/olympiaplein",
    "site": "pararius",
    "street": "Olympiaplein",
    "houseNumber": "1",
    "postalCode": "6707EN",
    "city": "Wageningen"
  },
  {
    "link": "\/appartement-te-huur\/leiden\/c3d05745\/van-der-werfstraat",
    "site": "pararius",
    "street": "Van der Werfstraat",
    "houseNumber": "25",
    "postalCode": "2312VS",
    "city": "Leiden"
  },
  {
    "link": "\/appartement-te-huur\/bussum\/b1eac01e\/olmenlaan",
    "site": "pararius",
    "street": "Olmenlaan",
    "houseNumber": "24p",
    "postalCode": "1404DG",
    "city": "Bussum"
  },
  {
    "link": "\/appartement-te-huur\/oosterhout-nb\/50dbb7b5\/van-reesstraat",
    "site": "pararius",
    "street": "Van Reesstraat",
    "houseNumber": "3",
    "postalCode": "4901LZ",
    "city": "Oosterhout"
  },
  {
    "link": "\/huis-te-huur\/meerstad\/f059e889\/bitterzoet",
    "site": "pararius",
    "street": "Bitterzoet",
    "houseNumber": "3",
    "postalCode": "9613AK",
    "city": "Meerstad"
  },
  {
    "link": "\/huis-te-huur\/harderwijk\/5ef7adb9\/stakenbergerhout",
    "site": "pararius",
    "street": "Stakenbergerhout",
    "houseNumber": "67",
    "postalCode": "3845JE",
    "city": "Harderwijk"
  },
  {
    "link": "\/appartement-te-huur\/groningen\/e7e40521\/c-h-petersstraat",
    "site": "pararius",
    "street": "C.H. Petersstraat",
    "houseNumber": "27",
    "postalCode": "9714CH",
    "city": "Groningen"
  },
  {
    "link": "\/appartement-te-huur\/groningen\/35380a58\/hardewikerstraat",
    "site": "pararius",
    "street": "Hardewikerstraat",
    "houseNumber": "13",
    "postalCode": "9712GR",
    "city": "Groningen"
  },
  {
    "link": "\/huis-te-huur\/oude-tonge\/cda34215\/dabbestraat",
    "site": "pararius",
    "street": "Dabbestraat",
    "houseNumber": "108",
    "postalCode": "3255XB",
    "city": "Oude-Tonge"
  },
  {
    "link": "\/appartement-te-huur\/wageningen\/252799b9\/plataanlaan",
    "site": "pararius",
    "street": "Plataanlaan",
    "houseNumber": "25",
    "postalCode": "6708PT",
    "city": "Wageningen"
  },
  {
    "link": "\/appartement-te-huur\/rijswijk\/38df4f28\/herenstraat",
    "site": "pararius",
    "street": "Herenstraat",
    "houseNumber": "80",
    "postalCode": "2282CA",
    "city": "Rijswijk"
  },
  {
    "link": "\/appartement-te-huur\/voorburg\/ed1f19eb\/jan-mulderstraat",
    "site": "pararius",
    "street": "Jan Mulderstraat",
    "houseNumber": "157",
    "postalCode": "2273VJ",
    "city": "Voorburg"
  },
  {
    "link": "\/appartement-te-huur\/voorburg\/982bc910\/herman-gorterstraat",
    "site": "pararius",
    "street": "Herman Gorterstraat",
    "houseNumber": "44",
    "postalCode": "2274JJ",
    "city": "Voorburg"
  },
  {
    "link": "\/appartement-te-huur\/gorinchem\/ed455229\/kruithoorn",
    "site": "pararius",
    "street": "Kruithoorn",
    "houseNumber": "54",
    "postalCode": "4208CJ",
    "city": "Gorinchem"
  },
  {
    "link": "\/huis-te-huur\/soest\/99eb269c\/turfstreek",
    "site": "pararius",
    "street": "Turfstreek",
    "houseNumber": "252",
    "postalCode": "3766HZ",
    "city": "Soest"
  },
  {
    "link": "\/appartement-te-huur\/maastricht\/2dcac87c\/atletenbaan",
    "site": "pararius",
    "street": "Atletenbaan",
    "houseNumber": "70",
    "postalCode": "6225XZ",
    "city": "Maastricht"
  },
  {
    "link": "\/huis-te-huur\/enschede\/15c3848f\/borneostraat",
    "site": "pararius",
    "street": "Borneostraat",
    "houseNumber": "22",
    "postalCode": "7512AK",
    "city": "Enschede"
  },
  {
    "link": "\/appartement-te-huur\/den-haag\/2eaaad3c\/reinwardtstraat",
    "site": "pararius",
    "street": "Reinwardtstraat",
    "houseNumber": "34",
    "postalCode": "2522AD",
    "city": "Den Haag"
  },
  {
    "link": "\/appartement-te-huur\/rotterdam\/77a49993\/bakkerstraat",
    "site": "pararius",
    "street": "Bakkerstraat",
    "houseNumber": "43",
    "postalCode": "3082HB",
    "city": "Rotterdam"
  },
  {
    "link": "\/appartement-te-huur\/hilversum\/aba331c0\/vaartweg",
    "site": "pararius",
    "street": "Vaartweg",
    "houseNumber": "44",
    "postalCode": "1217SV",
    "city": "Hilversum"
  },
  {
    "link": "\/appartement-te-huur\/maastricht\/27552514\/atletenbaan",
    "site": "pararius",
    "street": "Atletenbaan",
    "houseNumber": "74",
    "postalCode": "6225XZ",
    "city": "Maastricht"
  },
  {
    "link": "\/appartement-te-huur\/rotterdam\/657b58f9\/straatweg",
    "site": "pararius",
    "street": "Straatweg",
    "houseNumber": "58B",
    "postalCode": "3051BH",
    "city": "Rotterdam"
  },
  {
    "link": "\/appartement-te-huur\/hilversum\/c834d014\/bordetstraat",
    "site": "pararius",
    "street": "Bordetstraat",
    "houseNumber": "12",
    "postalCode": "1221HW",
    "city": "Hilversum"
  },
  {
    "link": "\/huis-te-huur\/heerlen\/ec421f38\/valkenburgerweg",
    "site": "pararius",
    "street": "Valkenburgerweg",
    "houseNumber": "26",
    "postalCode": "6411BN",
    "city": "Heerlen"
  },
  {
    "link": "\/appartement-te-huur\/oosterbeek\/e8dcf6c8\/jhr-nedermeijer-van-rosenthalweg",
    "site": "pararius",
    "street": "Jhr. Nedermeijer van Rosenthalweg",
    "houseNumber": "25",
    "postalCode": "6862ZR",
    "city": "Oosterbeek"
  },
  {
    "link": "\/appartement-te-huur\/den-haag\/37408288\/emmapark",
    "site": "pararius",
    "street": "Emmapark",
    "houseNumber": "2",
    "postalCode": "2595ET",
    "city": "Den Haag"
  },
  {
    "link": "\/appartement-te-huur\/maastricht\/c284b02e\/grote-gracht",
    "site": "pararius",
    "street": "Grote Gracht",
    "houseNumber": "10",
    "postalCode": "6211SW",
    "city": "Maastricht"
  },
  {
    "link": "\/huis-te-huur\/groesbeek\/8b4ed43f\/cranenburgsestraat",
    "site": "pararius",
    "street": "Cranenburgsestraat",
    "houseNumber": "23",
    "postalCode": "6561AM",
    "city": "Groesbeek"
  },
  {
    "link": "\/appartement-te-huur\/gorinchem\/f3acede0\/kruithoorn",
    "site": "pararius",
    "street": "Kruithoorn",
    "houseNumber": "76",
    "postalCode": "4208CJ",
    "city": "Gorinchem"
  },
  {
    "link": "\/appartement-te-huur\/gorinchem\/d3242be7\/kruithoorn",
    "site": "pararius",
    "street": "Kruithoorn",
    "houseNumber": "86",
    "postalCode": "4208CJ",
    "city": "Gorinchem"
  },
  {
    "link": "\/appartement-te-huur\/gorinchem\/4ce68ab0\/kruithoorn",
    "site": "pararius",
    "street": "Kruithoorn",
    "houseNumber": "38",
    "postalCode": "4208CJ",
    "city": "Gorinchem"
  },
  {
    "link": "\/appartement-te-huur\/gorinchem\/e11739bd\/kruithoorn",
    "site": "pararius",
    "street": "Kruithoorn",
    "houseNumber": "40",
    "postalCode": "4208CJ",
    "city": "Gorinchem"
  },
  {
    "link": "\/appartement-te-huur\/gorinchem\/3ec4d142\/kruithoorn",
    "site": "pararius",
    "street": "Kruithoorn",
    "houseNumber": "18",
    "postalCode": "4208CJ",
    "city": "Gorinchem"
  },
  {
    "link": "\/appartement-te-huur\/amersfoort\/c4587397\/johan-cruijffstraat",
    "site": "pararius",
    "street": "Johan Cruijffstraat",
    "houseNumber": "2",
    "postalCode": "3824KB",
    "city": "Amersfoort"
  },
  {
    "link": "\/appartement-te-huur\/amersfoort\/1c9ca3b5\/marie-vierdagstraat",
    "site": "pararius",
    "street": "Marie Vierdagstraat",
    "houseNumber": "188",
    "postalCode": "3824KG",
    "city": "Amersfoort"
  },
  {
    "link": "\/appartement-te-huur\/haarlem\/12089859\/cremerplein",
    "site": "pararius",
    "street": "Cremerplein",
    "houseNumber": "12",
    "postalCode": "2032KJ",
    "city": "Haarlem"
  },
  {
    "link": "\/appartement-te-huur\/wassenaar\/8cfbff9f\/raaphorstlaan",
    "site": "pararius",
    "street": "Raaphorstlaan",
    "houseNumber": "25",
    "postalCode": "2245BH",
    "city": "Wassenaar"
  },
  {
    "link": "\/appartement-te-huur\/enschede\/2248e7ba\/heutinkstraat",
    "site": "pararius",
    "street": "Heutinkstraat",
    "houseNumber": "77",
    "postalCode": "7535AX",
    "city": "Enschede"
  },
  {
    "link": "\/appartement-te-huur\/tiel\/df9c4c7b\/westluidensestraat",
    "site": "pararius",
    "street": "Westluidensestraat",
    "houseNumber": "12",
    "postalCode": "4001NG",
    "city": "Tiel"
  },
  {
    "link": "\/huis-te-huur\/haaksbergen\/e97f8bce\/goorsestraat",
    "site": "pararius",
    "street": "Goorsestraat",
    "houseNumber": "263",
    "postalCode": "7482CH",
    "city": "Haaksbergen"
  },
  {
    "link": "\/appartement-te-huur\/roosteren\/736f5bde\/hoekstraat",
    "site": "pararius",
    "street": "Hoekstraat",
    "houseNumber": "45",
    "postalCode": "6116AW",
    "city": "Roosteren"
  },
  {
    "link": "\/appartement-te-huur\/leiden\/7a1a014e\/cronjestraat",
    "site": "pararius",
    "street": "Cronj\u00e9straat",
    "houseNumber": "1",
    "postalCode": "2312ZN",
    "city": "Leiden"
  },
  {
    "link": "\/appartement-te-huur\/utrecht\/36f9cef1\/pieter-nieuwlandstraat",
    "site": "pararius",
    "street": "Pieter Nieuwlandstraat",
    "houseNumber": "75",
    "postalCode": "3514HD",
    "city": "Utrecht"
  },
  {
    "link": "\/huis-te-huur\/groningen\/c17b665e\/wagnersingel",
    "site": "pararius",
    "street": "Wagnersingel",
    "houseNumber": "22",
    "postalCode": "9722CZ",
    "city": "Groningen"
  },
  {
    "link": "\/appartement-te-huur\/velp-gld\/2203c287\/hoofdstraat",
    "site": "pararius",
    "street": "Hoofdstraat",
    "houseNumber": "108",
    "postalCode": "6881TJ",
    "city": "Velp"
  },
  {
    "link": "\/appartement-te-huur\/nijmegen\/24159e1f\/van-goorstraat",
    "site": "pararius",
    "street": "van Goorstraat",
    "houseNumber": "47",
    "postalCode": "6512EB",
    "city": "Nijmegen"
  },
  {
    "link": "\/appartement-te-huur\/groningen\/78387ea7\/tussen-beide-markten",
    "site": "pararius",
    "street": "Tussen beide Markten",
    "houseNumber": "1",
    "postalCode": "9712CC",
    "city": "Groningen"
  },
  {
    "link": "\/appartement-te-huur\/haarlem\/90451694\/monteverdistraat",
    "site": "pararius",
    "street": "Monteverdistraat",
    "houseNumber": "110",
    "postalCode": "2035PH",
    "city": "Haarlem"
  },
  {
    "link": "\/appartement-te-huur\/rotterdam\/fe392224\/immanuel-kantstraat",
    "site": "pararius",
    "street": "Immanuel Kantstraat",
    "houseNumber": "172",
    "postalCode": "3076DK",
    "city": "Rotterdam"
  },
  {
    "link": "\/appartement-te-huur\/arnhem\/18333416\/tivolilaan",
    "site": "pararius",
    "street": "Tivolilaan",
    "houseNumber": "173",
    "postalCode": "6824BV",
    "city": "Arnhem"
  },
  {
    "link": "\/appartement-te-huur\/rotterdam\/2cab9b22\/schiedamseweg",
    "site": "pararius",
    "street": "Schiedamseweg",
    "houseNumber": "92",
    "postalCode": "3025AG",
    "city": "Rotterdam"
  },
  {
    "link": "\/appartement-te-huur\/groningen\/c4caefde\/friesestraatweg",
    "site": "pararius",
    "street": "Friesestraatweg",
    "houseNumber": "24",
    "postalCode": "9718NJ",
    "city": "Groningen"
  },
  {
    "link": "\/appartement-te-huur\/den-haag\/1b734c95\/frederik-hendriklaan",
    "site": "pararius",
    "street": "Frederik Hendriklaan",
    "houseNumber": "240",
    "postalCode": "2582BM",
    "city": "Den Haag"
  },
  {
    "link": "\/appartement-te-huur\/deventer\/d9eb7167\/boterstraat",
    "site": "pararius",
    "street": "Boterstraat",
    "houseNumber": "4",
    "postalCode": "7411DA",
    "city": "Deventer"
  },
  {
    "link": "\/appartement-te-huur\/den-bosch\/1ff7edef\/zuid-willemsvaart",
    "site": "pararius",
    "street": "Zuid Willemsvaart",
    "houseNumber": "255",
    "postalCode": "5211SH",
    "city": "Den Bosch"
  },
  {
    "link": "\/appartement-te-huur\/noordwijkerhout\/7359aee2\/kornoeljelaan",
    "site": "pararius",
    "street": "Kornoeljelaan",
    "houseNumber": "26",
    "postalCode": "2211NT",
    "city": "Noordwijkerhout"
  },
  {
    "link": "\/huis-te-huur\/goirle\/e3edb7be\/sporenring",
    "site": "pararius",
    "street": "Sporenring",
    "houseNumber": "268",
    "postalCode": "5053EZ",
    "city": "Goirle"
  },
  {
    "link": "\/huis-te-huur\/goirle\/3f327d1a\/sporenring",
    "site": "pararius",
    "street": "Sporenring",
    "houseNumber": "198",
    "postalCode": "5053EZ",
    "city": "Goirle"
  },
  {
    "link": "\/appartement-te-huur\/schiedam\/356a0225\/emmaplein",
    "site": "pararius",
    "street": "Emmaplein",
    "houseNumber": "17",
    "postalCode": "3112DC",
    "city": "Schiedam"
  },
  {
    "link": "\/huis-te-huur\/goirle\/3f327d1a\/sporenring",
    "site": "pararius",
    "street": "Sporenring",
    "houseNumber": "198",
    "postalCode": "5053EZ",
    "city": "Goirle"
  },
  {
    "link": "\/huis-te-huur\/tilburg\/faa7b121\/willy-den-oudenstraat",
    "site": "pararius",
    "street": "Willy den Oudenstraat",
    "houseNumber": "17",
    "postalCode": "5026DB",
    "city": "Tilburg"
  },
  {
    "link": "\/appartement-te-huur\/doorwerth\/6beed211\/w-a-scholtenlaan",
    "site": "pararius",
    "street": "W.A. Scholtenlaan",
    "houseNumber": "79",
    "postalCode": "6865VV",
    "city": "Doorwerth"
  },
  {
    "link": "\/appartement-te-huur\/weert\/db15f8a1\/jan-van-der-croonstraat",
    "site": "pararius",
    "street": "Jan van der Croonstraat",
    "houseNumber": "51",
    "postalCode": "6001AH",
    "city": "Weert"
  },
  {
    "link": "\/appartement-te-huur\/rotterdam\/7e26b91b\/streksingel",
    "site": "pararius",
    "street": "Streksingel",
    "houseNumber": "221",
    "postalCode": "3054HH",
    "city": "Rotterdam"
  },
  {
    "link": "\/appartement-te-huur\/oisterwijk\/36e857ef\/joannes-lenartzstraat",
    "site": "pararius",
    "street": "Joannes Lenartzstraat",
    "houseNumber": "29",
    "postalCode": "5061HP",
    "city": "Oisterwijk"
  },
  {
    "link": "\/appartement-te-huur\/swalmen\/864f957f\/heistraat",
    "site": "pararius",
    "street": "Heistraat",
    "houseNumber": "35",
    "postalCode": "6071CE",
    "city": "Swalmen"
  },
  {
    "link": "\/appartement-te-huur\/den-haag\/772ca37d\/burgemeester-hovylaan",
    "site": "pararius",
    "street": "Burgemeester Hovylaan",
    "houseNumber": "5",
    "postalCode": "2552TA",
    "city": "Den Haag"
  },
  {
    "link": "\/appartement-te-huur\/heemstede\/e53b8e3b\/waterhof",
    "site": "pararius",
    "street": "Waterhof",
    "houseNumber": "20",
    "postalCode": "2102LC",
    "city": "Heemstede"
  },
  {
    "link": "\/appartement-te-huur\/delft\/746a218d\/papsouwselaan",
    "site": "pararius",
    "street": "Papsouwselaan",
    "houseNumber": "47",
    "postalCode": "2624AG",
    "city": "Delft"
  },
  {
    "link": "\/appartement-te-huur\/amersfoort\/707954b5\/weltevreden",
    "site": "pararius",
    "street": "Weltevreden",
    "houseNumber": "19",
    "postalCode": "3811NR",
    "city": "Amersfoort"
  },
  {
    "link": "\/huis-te-huur\/heerenveen\/25415f85\/dracht",
    "site": "pararius",
    "street": "Dracht",
    "houseNumber": "146",
    "postalCode": "8442BZ",
    "city": "Heerenveen"
  },
  {
    "link": "\/appartement-te-huur\/rotterdam\/e9965f1c\/russischestraat",
    "site": "pararius",
    "street": "Russischestraat",
    "houseNumber": "28A",
    "postalCode": "3028BE",
    "city": "Rotterdam"
  },
  {
    "link": "\/huis-te-huur\/alkmaar\/fb9ba3d7\/oudegracht",
    "site": "pararius",
    "street": "Oudegracht",
    "houseNumber": "82",
    "postalCode": "1811CM",
    "city": "Alkmaar"
  },
  {
    "link": "\/appartement-te-huur\/den-haag\/505ab834\/junostraat",
    "site": "pararius",
    "street": "Junostraat",
    "houseNumber": "271",
    "postalCode": "2516BR",
    "city": "Den Haag"
  },
  {
    "link": "\/appartement-te-huur\/geleen\/4346cfe6\/gadestraat",
    "site": "pararius",
    "street": "Gad\u00e9straat",
    "houseNumber": "1",
    "postalCode": "6165CH",
    "city": "Geleen"
  },
  {
    "link": "\/appartement-te-huur\/groningen\/cb6ca95d\/damsterdiep",
    "site": "pararius",
    "street": "Damsterdiep",
    "houseNumber": "29",
    "postalCode": "9711SG",
    "city": "Groningen"
  },
  {
    "link": "\/appartement-te-huur\/bussum\/2936497b\/beeklaan",
    "site": "pararius",
    "street": "Beeklaan",
    "houseNumber": "7",
    "postalCode": "1403RD",
    "city": "Bussum"
  },
  {
    "link": "\/huis-te-huur\/gassel\/d9277cff\/st-jansvoort",
    "site": "pararius",
    "street": "St Jansvoort",
    "houseNumber": "5",
    "postalCode": "5438AE",
    "city": "Gassel"
  },
  {
    "link": "\/appartement-te-huur\/almere\/d7a2f110\/regenboogweg",
    "site": "pararius",
    "street": "Regenboogweg",
    "houseNumber": "104",
    "postalCode": "1339GW",
    "city": "Almere"
  },
  {
    "link": "\/appartement-te-huur\/groningen\/99545f75\/sint-jansstraat",
    "site": "pararius",
    "street": "Sint Jansstraat",
    "houseNumber": "17",
    "postalCode": "9712JM",
    "city": "Groningen"
  },
  {
    "link": "\/appartement-te-huur\/groningen\/096f8427\/abraham-kuyperlaan",
    "site": "pararius",
    "street": "Abraham Kuyperlaan",
    "houseNumber": "55",
    "postalCode": "9722PC",
    "city": "Groningen"
  },
  {
    "link": "\/studio-te-huur\/harderwijk\/0a6d0379\/grote-haverstraat",
    "site": "pararius",
    "street": "Grote Haverstraat",
    "houseNumber": "1",
    "postalCode": "3841AV",
    "city": "Harderwijk"
  },
  {
    "link": "\/appartement-te-huur\/voorburg\/51da5fc8\/burgemeester-feithplein",
    "site": "pararius",
    "street": "Burgemeester Feithplein",
    "houseNumber": "38",
    "postalCode": "2273BX",
    "city": "Voorburg"
  },
  {
    "link": "\/appartement-te-huur\/groningen\/9634f7b7\/bloemsingel",
    "site": "pararius",
    "street": "Bloemsingel",
    "houseNumber": "163",
    "postalCode": "9714DS",
    "city": "Groningen"
  },
  {
    "link": "\/appartement-te-huur\/utrecht\/004894a0\/westerdijk",
    "site": "pararius",
    "street": "Westerdijk",
    "houseNumber": "4",
    "postalCode": "3513EW",
    "city": "Utrecht"
  },
  {
    "link": "\/appartement-te-huur\/hoorn-nh\/02395d08\/achterom",
    "site": "pararius",
    "street": "Achterom",
    "houseNumber": "50",
    "postalCode": "1621KV",
    "city": "Hoorn"
  },
  {
    "link": "\/appartement-te-huur\/delden\/09d429c7\/de-eschmolen",
    "site": "pararius",
    "street": "De Eschmolen",
    "houseNumber": "117",
    "postalCode": "7491HV",
    "city": "Delden"
  },
  {
    "link": "\/appartement-te-huur\/rotterdam\/734af4bb\/insulindestraat",
    "site": "pararius",
    "street": "Insulindestraat",
    "houseNumber": "229",
    "postalCode": "3038JP",
    "city": "Rotterdam"
  },
  {
    "link": "\/appartement-te-huur\/den-haag\/859c565f\/waldorpstraat",
    "site": "pararius",
    "street": "Waldorpstraat",
    "houseNumber": "586",
    "postalCode": "2521CK",
    "city": "Den Haag"
  },
  {
    "link": "\/appartement-te-huur\/utrecht\/3b1d1c8e\/pal-maleterstraat",
    "site": "pararius",
    "street": "Pal Maleterstraat",
    "houseNumber": "47",
    "postalCode": "3573PG",
    "city": "Utrecht"
  },
  {
    "link": "\/huis-te-huur\/harderwijk\/add717f7\/tafelbergerhout",
    "site": "pararius",
    "street": "Tafelbergerhout",
    "houseNumber": "42",
    "postalCode": "3845JD",
    "city": "Harderwijk"
  },
  {
    "link": "\/appartement-te-huur\/rotterdam\/5bf54cd4\/zaagmolenstraat",
    "site": "pararius",
    "street": "Zaagmolenstraat",
    "houseNumber": "207",
    "postalCode": "3036HN",
    "city": "Rotterdam"
  },
  {
    "link": "\/appartement-te-huur\/delft\/d98efeea\/simonsstraat",
    "site": "pararius",
    "street": "Simonsstraat",
    "houseNumber": "103",
    "postalCode": "2628TG",
    "city": "Delft"
  },
  {
    "link": "\/appartement-te-huur\/amersfoort\/fe350b4a\/johan-cruijffstraat",
    "site": "pararius",
    "street": "Johan Cruijffstraat",
    "houseNumber": "4",
    "postalCode": "3824KB",
    "city": "Amersfoort"
  },
  {
    "link": "\/appartement-te-huur\/nijmegen\/be6896b7\/st-thomashof",
    "site": "pararius",
    "street": "St. Thomashof",
    "houseNumber": "4",
    "postalCode": "6511SZ",
    "city": "Nijmegen"
  },
  {
    "link": "\/appartement-te-huur\/groningen\/7bffe0f5\/westerkade",
    "site": "pararius",
    "street": "Westerkade",
    "houseNumber": "24",
    "postalCode": "9718AS",
    "city": "Groningen"
  },
  {
    "link": "\/appartement-te-huur\/nijmegen\/ca78d0c2\/professor-van-der-heijdenstraat",
    "site": "pararius",
    "street": "Professor van der Heijdenstraat",
    "houseNumber": "33",
    "postalCode": "6524PV",
    "city": "Nijmegen"
  },
  {
    "link": "\/appartement-te-huur\/rotterdam\/372fb219\/putsebocht",
    "site": "pararius",
    "street": "Putsebocht",
    "houseNumber": "71",
    "postalCode": "3073HD",
    "city": "Rotterdam"
  },
  {
    "link": "\/appartement-te-huur\/amsterdam\/7accb3f8\/beemsterstraat",
    "site": "pararius",
    "street": "Beemsterstraat",
    "houseNumber": "542F",
    "postalCode": "1024BV",
    "city": "Amsterdam"
  },
  {
    "link": "\/appartement-te-huur\/amsterdam\/7accb3f8\/beemsterstraat",
    "site": "pararius",
    "street": "Beemsterstraat",
    "houseNumber": "542F",
    "postalCode": "1024BV",
    "city": "Amsterdam"
  },
  {
    "link": "\/appartement-te-huur\/swalmen\/e9a00049\/heistraat",
    "site": "pararius",
    "street": "Heistraat",
    "houseNumber": "37",
    "postalCode": "6071CE",
    "city": "Swalmen"
  },
  {
    "link": "\/appartement-te-huur\/delft\/f348b991\/papenstraat",
    "site": "pararius",
    "street": "Papenstraat",
    "houseNumber": "73",
    "postalCode": "2611JB",
    "city": "Delft"
  },
  {
    "link": "\/appartement-te-huur\/leiden\/e15c8630\/stevensbloem",
    "site": "pararius",
    "street": "Stevensbloem",
    "houseNumber": "121",
    "postalCode": "2331JB",
    "city": "Leiden"
  },
  {
    "link": "\/appartement-te-huur\/den-haag\/ee039729\/bezuidenhoutseweg",
    "site": "pararius",
    "street": "Bezuidenhoutseweg",
    "houseNumber": "90",
    "postalCode": "2594AX",
    "city": "Den Haag"
  },
  {
    "link": "\/appartement-te-huur\/rotterdam\/6a20f918\/diamantweg",
    "site": "pararius",
    "street": "Diamantweg",
    "houseNumber": "18",
    "postalCode": "3051XB",
    "city": "Rotterdam"
  },
  {
    "link": "\/appartement-te-huur\/gendt\/66780c2b\/dorpstraat",
    "site": "pararius",
    "street": "Dorpstraat",
    "houseNumber": "21",
    "postalCode": "6691AV",
    "city": "Gendt"
  },
  {
    "link": "\/appartement-te-huur\/rotterdam\/c88a6bd6\/philips-willemstraat",
    "site": "pararius",
    "street": "Philips Willemstraat",
    "houseNumber": "28",
    "postalCode": "3051PR",
    "city": "Rotterdam"
  },
  {
    "link": "\/appartement-te-huur\/rotterdam\/66eda8c9\/boekweitstraat",
    "site": "pararius",
    "street": "Boekweitstraat",
    "houseNumber": "4",
    "postalCode": "3073DB",
    "city": "Rotterdam"
  },
  {
    "link": "\/studio-te-huur\/eindhoven\/d149ae1d\/markt",
    "site": "pararius",
    "street": "Markt",
    "houseNumber": "21",
    "postalCode": "5611EC",
    "city": "Eindhoven"
  },
  {
    "link": "\/appartement-te-huur\/den-haag\/f043fdf3\/laan-van-nieuw-oost-indie",
    "site": "pararius",
    "street": "Laan van Nieuw-Oost-Indi\u00eb",
    "houseNumber": "85",
    "postalCode": "2593BL",
    "city": "Den Haag"
  },
  {
    "link": "\/appartement-te-huur\/rotterdam\/8de6c09e\/schonebergerweg",
    "site": "pararius",
    "street": "Schonebergerweg",
    "houseNumber": "89",
    "postalCode": "3023ZJ",
    "city": "Rotterdam"
  },
  {
    "link": "\/huis-te-huur\/deventer\/d0af4123\/gieterijstraat",
    "site": "pararius",
    "street": "Gieterijstraat",
    "houseNumber": "21",
    "postalCode": "7411EA",
    "city": "Deventer"
  },
  {
    "link": "\/appartement-te-huur\/rotterdam\/827567a2\/bree",
    "site": "pararius",
    "street": "Bree",
    "houseNumber": "91",
    "postalCode": "3074BD",
    "city": "Rotterdam"
  },
  {
    "link": "\/appartement-te-huur\/dordrecht\/08ed8ff0\/korte-parallelweg",
    "site": "pararius",
    "street": "Korte Parallelweg",
    "houseNumber": "53",
    "postalCode": "3311JN",
    "city": "Dordrecht"
  },
  {
    "link": "\/appartement-te-huur\/delft\/1b411981\/pierre-van-hauwelaan",
    "site": "pararius",
    "street": "Pierre van Hauwelaan",
    "houseNumber": "518",
    "postalCode": "2625WL",
    "city": "Delft"
  },
  {
    "link": "\/appartement-te-huur\/arnhem\/605bbbb7\/laakoever",
    "site": "pararius",
    "street": "Laakoever",
    "houseNumber": "108",
    "postalCode": "6846MW",
    "city": "Arnhem"
  },
  {
    "link": "\/appartement-te-huur\/zwijndrecht\/ab3d3e44\/steenbokstraat",
    "site": "pararius",
    "street": "Steenbokstraat",
    "houseNumber": "32",
    "postalCode": "3331TM",
    "city": "Zwijndrecht"
  },
  {
    "link": "\/appartement-te-huur\/rotterdam\/233e9466\/thomas-mannplaats",
    "site": "pararius",
    "street": "Thomas Mannplaats",
    "houseNumber": "470",
    "postalCode": "3069NJ",
    "city": "Rotterdam"
  },
  {
    "link": "\/huis-te-huur\/steenbergen-nb\/866a7235\/molenweg",
    "site": "pararius",
    "street": "Molenweg",
    "houseNumber": "29",
    "postalCode": "4651CG",
    "city": "Steenbergen"
  },
  {
    "link": "\/appartement-te-huur\/delfgauw\/14d9d160\/melkdragerhof",
    "site": "pararius",
    "street": "Melkdragerhof",
    "houseNumber": "143",
    "postalCode": "2645LN",
    "city": "Delfgauw"
  },
  {
    "link": "\/appartement-te-huur\/arnhem\/fd296978\/bergstraat",
    "site": "pararius",
    "street": "Bergstraat",
    "houseNumber": "6",
    "postalCode": "6811LH",
    "city": "Arnhem"
  },
  {
    "link": "\/appartement-te-huur\/bergen-nh\/74dbae32\/karel-de-grotelaan",
    "site": "pararius",
    "street": "Karel de Grotelaan",
    "houseNumber": "23",
    "postalCode": "1861KH",
    "city": "Bergen"
  },
  {
    "link": "\/appartement-te-huur\/rijswijk\/aa870f75\/frans-halskade",
    "site": "pararius",
    "street": "Frans Halskade",
    "houseNumber": "93",
    "postalCode": "2282TT",
    "city": "Rijswijk"
  },
  {
    "link": "\/appartement-te-huur\/klazienaveen\/1505ae39\/langestraat",
    "site": "pararius",
    "street": "Langestraat",
    "houseNumber": "132",
    "postalCode": "7891GJ",
    "city": "Klazienaveen"
  },
  {
    "link": "\/appartement-te-huur\/aalsmeer\/28a5e5d5\/gedempte-sloot",
    "site": "pararius",
    "street": "Gedempte sloot",
    "houseNumber": "56",
    "postalCode": "1431CR",
    "city": "Aalsmeer"
  },
  {
    "link": "\/appartement-te-huur\/maastricht\/f421b87c\/wilhelminasingel",
    "site": "pararius",
    "street": "Wilhelminasingel",
    "houseNumber": "90D",
    "postalCode": "6221BL",
    "city": "Maastricht"
  },
  {
    "link": "\/appartement-te-huur\/eemnes\/f8c27c8a\/braadkamp",
    "site": "pararius",
    "street": "Braadkamp",
    "houseNumber": "15",
    "postalCode": "3755CJ",
    "city": "Eemnes"
  },
  {
    "link": "\/appartement-te-huur\/utrecht\/973faa92\/zadelstraat",
    "site": "pararius",
    "street": "Zadelstraat",
    "houseNumber": "5",
    "postalCode": "3511LR",
    "city": "Utrecht"
  },
  {
    "link": "\/appartement-te-huur\/groningen\/8e7aa6ee\/martinikerkhof",
    "site": "pararius",
    "street": "Martinikerkhof",
    "houseNumber": "17",
    "postalCode": "9712JG",
    "city": "Groningen"
  },
  {
    "link": "\/appartement-te-huur\/eindhoven\/4df63447\/kloosterdreef",
    "site": "pararius",
    "street": "Kloosterdreef",
    "houseNumber": "41",
    "postalCode": "5612CT",
    "city": "Eindhoven"
  },
  {
    "link": "\/appartement-te-huur\/rotterdam\/07e4d337\/noorwitsstraat",
    "site": "pararius",
    "street": "Noorwitsstraat",
    "houseNumber": "118",
    "postalCode": "3067KT",
    "city": "Rotterdam"
  },
  {
    "link": "\/huis-te-huur\/papendrecht\/3099d13f\/gerard-dousingel",
    "site": "pararius",
    "street": "Gerard Dousingel",
    "houseNumber": "116",
    "postalCode": "3351JJ",
    "city": "Papendrecht"
  },
  {
    "link": "\/appartement-te-huur\/noordwijk-zh\/d0b92d4b\/voorstraat",
    "site": "pararius",
    "street": "Voorstraat",
    "houseNumber": "27",
    "postalCode": "2201HL",
    "city": "Noordwijk"
  },
  {
    "link": "\/huis-te-huur\/wassenaar\/db419939\/kloosterland",
    "site": "pararius",
    "street": "Kloosterland",
    "houseNumber": "74",
    "postalCode": "2242ET",
    "city": "Wassenaar"
  },
  {
    "link": "\/huis-te-huur\/rotterdam\/ced4e582\/dr-zamenhofstraat",
    "site": "pararius",
    "street": "Dr. Zamenhofstraat",
    "houseNumber": "57",
    "postalCode": "3061SE",
    "city": "Rotterdam"
  },
  {
    "link": "\/appartement-te-huur\/rotterdam\/17186185\/laan-op-zuid",
    "site": "pararius",
    "street": "Laan op Zuid",
    "houseNumber": "636",
    "postalCode": "3071AB",
    "city": "Rotterdam"
  },
  {
    "link": "\/appartement-te-huur\/leiden\/54e2ee46\/pelikaanstraat",
    "site": "pararius",
    "street": "Pelikaanstraat",
    "houseNumber": "25",
    "postalCode": "2312DW",
    "city": "Leiden"
  },
  {
    "link": "\/appartement-te-huur\/pernis-rotterdam\/91a3e608\/pastoriedijk",
    "site": "pararius",
    "street": "Pastoriedijk",
    "houseNumber": "334",
    "postalCode": "3195HM",
    "city": "Pernis Rotterdam"
  },
  {
    "link": "\/huis-te-huur\/bleiswijk\/2b16b439\/evertsenstraat",
    "site": "pararius",
    "street": "Evertsenstraat",
    "houseNumber": "4",
    "postalCode": "2665AE",
    "city": "Bleiswijk"
  },
  {
    "link": "\/appartement-te-huur\/eindhoven\/daa5d7a7\/st-eligiuspad",
    "site": "pararius",
    "street": "St Eligiuspad",
    "houseNumber": "11",
    "postalCode": "5645EG",
    "city": "Eindhoven"
  },
  {
    "link": "\/appartement-te-huur\/burgh-haamstede\/bdd4f5bb\/hogezoom",
    "site": "pararius",
    "street": "Hogezoom",
    "houseNumber": "3App",
    "postalCode": "4328EE",
    "city": "Burgh-Haamstede"
  },
  {
    "link": "\/appartement-te-huur\/rotterdam\/1b151275\/socratesstraat",
    "site": "pararius",
    "street": "Socratesstraat",
    "houseNumber": "167",
    "postalCode": "3076BV",
    "city": "Rotterdam"
  },
  {
    "link": "\/appartement-te-huur\/nijmegen\/1e9be735\/scheidemakershof",
    "site": "pararius",
    "street": "Scheidemakershof",
    "houseNumber": "9",
    "postalCode": "6511KH",
    "city": "Nijmegen"
  },
  {
    "link": "\/appartement-te-huur\/rotterdam\/2843a5ed\/mijnsherenlaan",
    "site": "pararius",
    "street": "Mijnsherenlaan",
    "houseNumber": "158",
    "postalCode": "3081CM",
    "city": "Rotterdam"
  },
  {
    "link": "\/appartement-te-huur\/leiden\/09eee8bc\/pasteurstraat",
    "site": "pararius",
    "street": "Pasteurstraat",
    "houseNumber": "133",
    "postalCode": "2316BS",
    "city": "Leiden"
  },
  {
    "link": "\/appartement-te-huur\/rotterdam\/89d3e666\/berkelselaan",
    "site": "pararius",
    "street": "Berkelselaan",
    "houseNumber": "23",
    "postalCode": "3037PB",
    "city": "Rotterdam"
  },
  {
    "link": "\/appartement-te-huur\/den-haag\/514a5fa0\/usselincxstraat",
    "site": "pararius",
    "street": "Usselincxstraat",
    "houseNumber": "153",
    "postalCode": "2593VK",
    "city": "Den Haag"
  },
  {
    "link": "\/appartement-te-huur\/den-haag\/af080df9\/de-eerensplein",
    "site": "pararius",
    "street": "De Eerensplein",
    "houseNumber": "2",
    "postalCode": "2593NA",
    "city": "Den Haag"
  },
  {
    "link": "\/appartement-te-huur\/den-haag\/ab150f44\/obrechtstraat",
    "site": "pararius",
    "street": "Obrechtstraat",
    "houseNumber": "212",
    "postalCode": "2517VC",
    "city": "Den Haag"
  },
  {
    "link": "\/appartement-te-huur\/rotterdam\/0e197c36\/mathenesserdijk",
    "site": "pararius",
    "street": "Mathenesserdijk",
    "houseNumber": "395",
    "postalCode": "3026GE",
    "city": "Rotterdam"
  },
  {
    "link": "\/appartement-te-huur\/den-haag\/7eeae966\/pahudstraat",
    "site": "pararius",
    "street": "Pahudstraat",
    "houseNumber": "90",
    "postalCode": "2593TJ",
    "city": "Den Haag"
  },
  {
    "link": "\/appartement-te-huur\/voorburg\/4338aab6\/koningin-julianalaan",
    "site": "pararius",
    "street": "Koningin Julianalaan",
    "houseNumber": "218",
    "postalCode": "2274JP",
    "city": "Voorburg"
  },
  {
    "link": "\/huis-te-huur\/zutphen\/c92670df\/bronsbergen",
    "site": "pararius",
    "street": "Bronsbergen",
    "houseNumber": "25",
    "postalCode": "7207AD",
    "city": "Zutphen"
  },
  {
    "link": "\/appartement-te-huur\/almere\/a6f41677\/londenhof",
    "site": "pararius",
    "street": "Londenhof",
    "houseNumber": "4",
    "postalCode": "1334CK",
    "city": "Almere"
  },
  {
    "link": "\/appartement-te-huur\/rotterdam\/cc64fb79\/nieuwe-binnenweg",
    "site": "pararius",
    "street": "Nieuwe Binnenweg",
    "houseNumber": "143",
    "postalCode": "3014GJ",
    "city": "Rotterdam"
  },
  {
    "link": "\/huis-te-huur\/cadier-en-keer\/9d8a6aee\/papendel",
    "site": "pararius",
    "street": "Papendel",
    "houseNumber": "5",
    "postalCode": "6267GB",
    "city": "Cadier en Keer"
  },
  {
    "link": "\/appartement-te-huur\/utrecht\/c8551464\/reinoutdreef",
    "site": "pararius",
    "street": "Reinoutdreef",
    "houseNumber": "47",
    "postalCode": "3562LK",
    "city": "Utrecht"
  },
  {
    "link": "\/appartement-te-huur\/rotterdam\/13014966\/goudsesingel",
    "site": "pararius",
    "street": "Goudsesingel",
    "houseNumber": "229",
    "postalCode": "3031EK",
    "city": "Rotterdam"
  },
  {
    "link": "\/appartement-te-huur\/amsterdam\/e528e4ee\/grasweg",
    "site": "pararius",
    "street": "Grasweg",
    "houseNumber": "152",
    "postalCode": "1031HX",
    "city": "Amsterdam"
  },
  {
    "link": "\/appartement-te-huur\/laren-nh\/7c6a9b2d\/spinnewiel",
    "site": "pararius",
    "street": "Spinnewiel",
    "houseNumber": "17",
    "postalCode": "1251DA",
    "city": "Laren"
  },
  {
    "link": "\/appartement-te-huur\/den-haag\/46769e5e\/asterstraat",
    "site": "pararius",
    "street": "Asterstraat",
    "houseNumber": "104",
    "postalCode": "2565TX",
    "city": "Den Haag"
  },
  {
    "link": "\/huis-te-huur\/alkmaar\/fed9fbd3\/stuartstraat",
    "site": "pararius",
    "street": "Stuartstraat",
    "houseNumber": "60",
    "postalCode": "1815BT",
    "city": "Alkmaar"
  },
  {
    "link": "\/appartement-te-huur\/groningen\/0e80ab82\/sontplein",
    "site": "pararius",
    "street": "Sontplein",
    "houseNumber": "114",
    "postalCode": "9723BZ",
    "city": "Groningen"
  },
  {
    "link": "\/appartement-te-huur\/haarlem\/7d329697\/achterlangs",
    "site": "pararius",
    "street": "Achterlangs",
    "houseNumber": "9",
    "postalCode": "2019XT",
    "city": "Haarlem"
  },
  {
    "link": "\/appartement-te-huur\/doorwerth\/c72772d9\/koningsberg",
    "site": "pararius",
    "street": "Koningsberg",
    "houseNumber": "27",
    "postalCode": "6865NP",
    "city": "Doorwerth"
  },
  {
    "link": "\/appartement-te-huur\/den-haag\/d17be07f\/passage",
    "site": "pararius",
    "street": "Passage",
    "houseNumber": "78",
    "postalCode": "2511AE",
    "city": "Den Haag"
  },
  {
    "link": "\/appartement-te-huur\/haarlem\/0a17297c\/monteverdistraat",
    "site": "pararius",
    "street": "Monteverdistraat",
    "houseNumber": "116",
    "postalCode": "2035PH",
    "city": "Haarlem"
  },
  {
    "link": "\/studio-te-huur\/grave\/d9959bb2\/brugstraat",
    "site": "pararius",
    "street": "Brugstraat",
    "houseNumber": "7",
    "postalCode": "5361GT",
    "city": "Grave"
  },
  {
    "link": "\/appartement-te-huur\/lelystad\/eb58d0b7\/agorahof",
    "site": "pararius",
    "street": "Agorahof",
    "houseNumber": "107",
    "postalCode": "8224JH",
    "city": "Lelystad"
  },
  {
    "link": "\/appartement-te-huur\/den-haag\/83eea55e\/van-der-duynstraat",
    "site": "pararius",
    "street": "Van der Duynstraat",
    "houseNumber": "167",
    "postalCode": "2515NJ",
    "city": "Den Haag"
  },
  {
    "link": "\/appartement-te-huur\/haren-gn\/b8cf869d\/kromme-elleboog",
    "site": "pararius",
    "street": "Kromme Elleboog",
    "houseNumber": "64",
    "postalCode": "9751RE",
    "city": "Haren Gn"
  },
  {
    "link": "\/appartement-te-huur\/nijmegen\/c8ef926f\/ijsvogelpassage",
    "site": "pararius",
    "street": "IJsvogelpassage",
    "houseNumber": "105",
    "postalCode": "6541RK",
    "city": "Nijmegen"
  },
  {
    "link": "\/appartement-te-huur\/haren-gn\/b8cf869d\/kromme-elleboog",
    "site": "pararius",
    "street": "Kromme Elleboog",
    "houseNumber": "64",
    "postalCode": "9751RE",
    "city": "Haren Gn"
  },
  {
    "link": "\/appartement-te-huur\/den-haag\/83eea55e\/van-der-duynstraat",
    "site": "pararius",
    "street": "Van der Duynstraat",
    "houseNumber": "167",
    "postalCode": "2515NJ",
    "city": "Den Haag"
  },
  {
    "link": "\/appartement-te-huur\/nijmegen\/c8ef926f\/ijsvogelpassage",
    "site": "pararius",
    "street": "IJsvogelpassage",
    "houseNumber": "105",
    "postalCode": "6541RK",
    "city": "Nijmegen"
  },
  {
    "link": "\/appartement-te-huur\/rotterdam\/d213c8fa\/westewagenstraat",
    "site": "pararius",
    "street": "Westewagenstraat",
    "houseNumber": "12",
    "postalCode": "3011AS",
    "city": "Rotterdam"
  },
  {
    "link": "\/huis-te-huur\/leeuwarden\/591966f7\/eewal",
    "site": "pararius",
    "street": "Eewal",
    "houseNumber": "48",
    "postalCode": "8911GT",
    "city": "Leeuwarden"
  },
  {
    "link": "\/appartement-te-huur\/den-haag\/6177dee9\/soestdijksekade",
    "site": "pararius",
    "street": "Soestdijksekade",
    "houseNumber": "374",
    "postalCode": "2574BT",
    "city": "Den Haag"
  },
  {
    "link": "\/huis-te-huur\/helmond\/132588dd\/oostende",
    "site": "pararius",
    "street": "Oostende",
    "houseNumber": "16",
    "postalCode": "5702NP",
    "city": "Helmond"
  },
  {
    "link": "\/huis-te-huur\/deventer\/b34801f3\/ramelestraat",
    "site": "pararius",
    "street": "Ramelestraat",
    "houseNumber": "33",
    "postalCode": "7416WZ",
    "city": "Deventer"
  },
  {
    "link": "\/appartement-te-huur\/amsterdam\/7f969440\/burgemeester-cramergracht",
    "site": "pararius",
    "street": "Burgemeester Cramergracht",
    "houseNumber": "139",
    "postalCode": "1064AK",
    "city": "Amsterdam"
  },
  {
    "link": "\/huis-te-huur\/enschede\/58421073\/kerkstraat",
    "site": "pararius",
    "street": "Kerkstraat",
    "houseNumber": "73",
    "postalCode": "7532AR",
    "city": "Enschede"
  },
  {
    "link": "\/appartement-te-huur\/rotterdam\/95f252d0\/oostendamstraat",
    "site": "pararius",
    "street": "Oostendamstraat",
    "houseNumber": "163",
    "postalCode": "3073NG",
    "city": "Rotterdam"
  },
  {
    "link": "\/appartement-te-huur\/doesburg\/c150fafb\/veerpoortdijk",
    "site": "pararius",
    "street": "Veerpoortdijk",
    "houseNumber": "93",
    "postalCode": "6981LA",
    "city": "Doesburg"
  },
  {
    "link": "\/appartement-te-huur\/reeuwijk\/325674c3\/van-staverenstraat",
    "site": "pararius",
    "street": "Van Staverenstraat",
    "houseNumber": "18",
    "postalCode": "2811TL",
    "city": "Reeuwijk"
  },
  {
    "link": "\/appartement-te-huur\/haarlem\/7432a934\/berckheydestraat",
    "site": "pararius",
    "street": "Berckheydestraat",
    "houseNumber": "5",
    "postalCode": "2021EP",
    "city": "Haarlem"
  },
  {
    "link": "\/appartement-te-huur\/rotterdam\/7d34bb07\/bijlwerffstraat",
    "site": "pararius",
    "street": "Bijlwerffstraat",
    "houseNumber": "41",
    "postalCode": "3039VE",
    "city": "Rotterdam"
  },
  {
    "link": "\/appartement-te-huur\/leiden\/13424252\/oude-singel",
    "site": "pararius",
    "street": "Oude Singel",
    "houseNumber": "130",
    "postalCode": "2312RG",
    "city": "Leiden"
  },
  {
    "link": "\/appartement-te-huur\/arnhem\/89708110\/franckstraat",
    "site": "pararius",
    "street": "Franckstraat",
    "houseNumber": "5",
    "postalCode": "6815HD",
    "city": "Arnhem"
  },
  {
    "link": "\/appartement-te-huur\/aalsmeer\/a8bbeaaa\/gedempte-sloot",
    "site": "pararius",
    "street": "Gedempte sloot",
    "houseNumber": "60",
    "postalCode": "1431CR",
    "city": "Aalsmeer"
  },
  {
    "link": "\/huis-te-huur\/wageningen\/27c4412b\/van-der-lecklaan",
    "site": "pararius",
    "street": "Van der Lecklaan",
    "houseNumber": "28",
    "postalCode": "6708MP",
    "city": "Wageningen"
  },
  {
    "link": "\/appartement-te-huur\/schiedam\/883970e7\/schiedamseweg",
    "site": "pararius",
    "street": "Schiedamseweg",
    "houseNumber": "188",
    "postalCode": "3119JC",
    "city": "Schiedam"
  },
  {
    "link": "\/appartement-te-huur\/amsterdam\/5740aad6\/rookmelderstraat",
    "site": "pararius",
    "street": "Rookmelderstraat",
    "houseNumber": "74",
    "postalCode": "1019VS",
    "city": "Amsterdam"
  },
  {
    "link": "\/appartement-te-huur\/wateringen\/7b960d0f\/kerklaan",
    "site": "pararius",
    "street": "Kerklaan",
    "houseNumber": "22",
    "postalCode": "2291CH",
    "city": "Wateringen"
  },
  {
    "link": "\/appartement-te-huur\/den-haag\/cecf2d99\/riouwstraat",
    "site": "pararius",
    "street": "Riouwstraat",
    "houseNumber": "97",
    "postalCode": "2585GZ",
    "city": "Den Haag"
  },
  {
    "link": "\/appartement-te-huur\/purmerend\/aec49d19\/st-nicolaassteeg",
    "site": "pararius",
    "street": "St. Nicolaassteeg",
    "houseNumber": "7",
    "postalCode": "1441CE",
    "city": "Purmerend"
  },
  {
    "link": "\/appartement-te-huur\/almere\/cf21a2f0\/couperusweg",
    "site": "pararius",
    "street": "Couperusweg",
    "houseNumber": "34",
    "postalCode": "1321CG",
    "city": "Almere"
  },
  {
    "link": "\/appartement-te-huur\/amsterdam\/c9b7f3eb\/august-allebeplein",
    "site": "pararius",
    "street": "August Alleb\u00e9plein",
    "houseNumber": "203",
    "postalCode": "1062AB",
    "city": "Amsterdam"
  },
  {
    "link": "\/appartement-te-huur\/rijswijk\/6d7c0926\/koopmansstraat",
    "site": "pararius",
    "street": "Koopmansstraat",
    "houseNumber": "1F",
    "postalCode": "2288BC",
    "city": "Rijswijk"
  },
  {
    "link": "\/appartement-te-huur\/roermond\/4be86b00\/bergstraat",
    "site": "pararius",
    "street": "Bergstraat",
    "houseNumber": "12B",
    "postalCode": "6041ES",
    "city": "Roermond"
  },
  {
    "link": "\/appartement-te-huur\/den-haag\/e9b34ffe\/van-speijkstraat",
    "site": "pararius",
    "street": "Van Speijkstraat",
    "houseNumber": "162",
    "postalCode": "2518GH",
    "city": "Den Haag"
  },
  {
    "link": "\/appartement-te-huur\/rotterdam\/483eae9a\/weena",
    "site": "pararius",
    "street": "Weena",
    "houseNumber": "395",
    "postalCode": "3013AL",
    "city": "Rotterdam"
  },
  {
    "link": "\/appartement-te-huur\/utrecht\/340df1cd\/prof-adolf-mayerlaan",
    "site": "pararius",
    "street": "Prof. Adolf Mayerlaan",
    "houseNumber": "35",
    "postalCode": "3571TH",
    "city": "Utrecht"
  },
  {
    "link": "\/appartement-te-huur\/amersfoort\/f6ee35d8\/drapiersgilde",
    "site": "pararius",
    "street": "Drapiersgilde",
    "houseNumber": "67",
    "postalCode": "3813GV",
    "city": "Amersfoort"
  },
  {
    "link": "\/appartement-te-huur\/capelle-aan-den-ijssel\/8d00a9b9\/zijpenberg",
    "site": "pararius",
    "street": "Zijpenberg",
    "houseNumber": "118",
    "postalCode": "2905RN",
    "city": "Capelle aan den IJssel"
  },
  {
    "link": "\/appartement-te-huur\/rotterdam\/c8e42982\/weena",
    "site": "pararius",
    "street": "Weena",
    "houseNumber": "441",
    "postalCode": "3013AL",
    "city": "Rotterdam"
  },
  {
    "link": "\/appartement-te-huur\/amsterdam\/9d5a97ef\/august-allebeplein",
    "site": "pararius",
    "street": "August Alleb\u00e9plein",
    "houseNumber": "173",
    "postalCode": "1062AB",
    "city": "Amsterdam"
  },
  {
    "link": "\/huis-te-huur\/maastricht\/dd748abd\/lindenkruishof",
    "site": "pararius",
    "street": "Lindenkruishof",
    "houseNumber": "15",
    "postalCode": "6211XD",
    "city": "Maastricht"
  },
  {
    "link": "\/appartement-te-huur\/amsterdam\/365dd50b\/grasweg",
    "site": "pararius",
    "street": "Grasweg",
    "houseNumber": "278",
    "postalCode": "1031HX",
    "city": "Amsterdam"
  },
  {
    "link": "\/appartement-te-huur\/amsterdam\/be3520a3\/grasweg",
    "site": "pararius",
    "street": "Grasweg",
    "houseNumber": "292",
    "postalCode": "1031HX",
    "city": "Amsterdam"
  },
  {
    "link": "\/appartement-te-huur\/den-haag\/96a05caf\/frederik-hendriklaan",
    "site": "pararius",
    "street": "Frederik Hendriklaan",
    "houseNumber": "292",
    "postalCode": "2582BN",
    "city": "Den Haag"
  },
  {
    "link": "\/appartement-te-huur\/mijdrecht\/41f811f3\/vermogenweg",
    "site": "pararius",
    "street": "Vermogenweg",
    "houseNumber": "111",
    "postalCode": "3641ST",
    "city": "Mijdrecht"
  },
  {
    "link": "\/appartement-te-huur\/leiden\/92a4dfb1\/stationsplein",
    "site": "pararius",
    "street": "Stationsplein",
    "houseNumber": "180",
    "postalCode": "2312AP",
    "city": "Leiden"
  },
  {
    "link": "\/appartement-te-huur\/noordwijk-zh\/3f77e589\/van-de-mortelstraat",
    "site": "pararius",
    "street": "van de Mortelstraat",
    "houseNumber": "116",
    "postalCode": "2203JH",
    "city": "Noordwijk"
  },
  {
    "link": "\/appartement-te-huur\/maastricht\/cd14a049\/remisepave",
    "site": "pararius",
    "street": "Remisepav\u00e9",
    "houseNumber": "3",
    "postalCode": "6211XC",
    "city": "Maastricht"
  },
  {
    "link": "\/appartement-te-huur\/enschede\/764b1561\/emmastraat",
    "site": "pararius",
    "street": "Emmastraat",
    "houseNumber": "23",
    "postalCode": "7513BA",
    "city": "Enschede"
  },
  {
    "link": "\/appartement-te-huur\/enschede\/78704381\/haaksbergerstraat",
    "site": "pararius",
    "street": "Haaksbergerstraat",
    "houseNumber": "94",
    "postalCode": "7513EA",
    "city": "Enschede"
  },
  {
    "link": "\/appartement-te-huur\/leiderdorp\/51f56a77\/koekoekstraat",
    "site": "pararius",
    "street": "Koekoekstraat",
    "houseNumber": "33",
    "postalCode": "2352CV",
    "city": "Leiderdorp"
  },
  {
    "link": "\/appartement-te-huur\/den-haag\/02d871fa\/laan-van-meerdervoort",
    "site": "pararius",
    "street": "Laan van Meerdervoort",
    "houseNumber": "205",
    "postalCode": "2517BC",
    "city": "Den Haag"
  }
]